{"type":"FeatureCollection","features":[{"type":"Feature","geometry":{"type":"Polygon","coordinates":[[[-89.3182,33.0655],[-89.3192,32.9317],[-89.0177,32.9313],[-89.0177,32.9264],[-88.9748,32.9265],[-88.9305,32.9192],[-88.9144,32.9266],[-88.8128,32.926],[-88.8131,33.2864],[-89.1089,33.2859],[-89.1089,33.1981],[-89.2134,33.1975],[-89.2139,33.1094],[-89.3179,33.1089],[-89.3182,33.0655]]]},"properties":{"STATE":"28","COUNTY":"159","NAME":"Winston County","GEOID":"28159"}},{"type":"Feature","geometry":{"type":"Polygon","coordinates":[[[-90.7277,33.2675],[-90.7332,33.233],[-90.6803,33.202],[-90.6857,33.1896],[-90.6881,33.1485],[-90.6985,33.138],[-90.6997,33.122],[-90.6796,33.1146],[-90.6796,33.1025],[-90.7018,33.0963],[-90.658,33.0965],[-90.6566,32.9225],[-90.4499,32.9233],[-90.4493,33.009],[-90.364,33.0106],[-90.3828,33.0259],[-90.3798,33.0421],[-90.4154,33.049],[-90.4283,33.0573],[-90.4319,33.0959],[-90.4185,33.1147],[-90.4163,33.1041],[-90.3934,33.1017],[-90.3849,33.0873],[-90.373,33.0841],[-90.3655,33.0955],[-90.3863,33.1128],[-90.3689,33.1255],[-90.3662,33.1037],[-90.3528,33.0949],[-90.3555,33.1131],[-90.3469,33.132],[-90.3306,33.1354],[-90.3316,33.3028],[-90.3438,33.3091],[-90.357,33.2971],[-90.3648,33.2758],[-90.3767,33.2803],[-90.3672,33.2603],[-90.3753,33.2468],[-90.3701,33.2412],[-90.4108,33.2451],[-90.4132,33.2353],[-90.4538,33.2673],[-90.4532,33.3295],[-90.5555,33.3292],[-90.5552,33.2705],[-90.7277,33.2675]]]},"properties":{"STATE":"28","COUNTY":"053","NAME":"Humphreys County","GEOID":"28053"}},{"type":"Feature","geometry":{"type":"Polygon","coordinates":[[[-88.943,31.5657],[-88.9435,31.4335],[-88.4496,31.4358],[-88.4732,31.8939],[-88.6225,31.8572],[-88.6909,31.8466],[-88.7634,31.8359],[-88.9434,31.8246],[-88.943,31.5657]]]},"properties":{"STATE":"28","COUNTY":"153","NAME":"Wayne County","GEOID":"28153"}},{"type":"Feature","geometry":{"type":"Polygon","coordinates":[[[-89.6542,31.4338],[-89.654,31.0025],[-89.5519,31.0019],[-89.552,31.016],[-89.5013,31.016],[-89.5014,31.0015],[-89.4759,31.0014],[-89.476,30.9829],[-89.4253,30.9825],[-89.4248,31.0101],[-89.3489,31.0104],[-89.3479,31.3467],[-89.4511,31.3464],[-89.4516,31.434],[-89.6542,31.4338]]]},"properties":{"STATE":"28","COUNTY":"073","NAME":"Lamar County","GEOID":"28073"}},{"type":"Feature","geometry":{"type":"Polygon","coordinates":[[[-89.7243,34.9952],[-89.7223,34.6855],[-89.6692,34.6858],[-89.6684,34.5544],[-89.4767,34.554],[-89.4605,34.5386],[-89.4431,34.5312],[-89.4348,34.5202],[-89.4127,34.5259],[-89.392,34.5253],[-89.3788,34.5172],[-89.3536,34.5272],[-89.3364,34.5221],[-89.3258,34.526],[-89.2845,34.5069],[-89.2643,34.5054],[-89.2461,34.4956],[-89.2456,34.5832],[-89.2983,34.5829],[-89.2992,34.8444],[-89.3527,34.8444],[-89.3527,34.9941],[-89.7243,34.9952]]]},"properties":{"STATE":"28","COUNTY":"093","NAME":"Marshall County","GEOID":"28093"}},{"type":"Feature","geometry":{"type":"Polygon","coordinates":[[[-89.5097,34.1621],[-89.5071,33.7218],[-89.1919,33.7222],[-89.19,33.8117],[-89.1379,33.8121],[-89.1392,34.0741],[-89.2444,34.0739],[-89.2455,34.1612],[-89.5097,34.1621]]]},"properties":{"STATE":"28","COUNTY":"013","NAME":"Calhoun County","GEOID":"28013"}},{"type":"Feature","geometry":{"type":"Polygon","coordinates":[[[-88.8417,31.4337],[-88.8409,30.9984],[-88.4256,30.9983],[-88.4496,31.4358],[-88.8417,31.4337]]]},"properties":{"STATE":"28","COUNTY":"041","NAME":"Greene County","GEOID":"28041"}},{"type":"Feature","geometry":{"type":"Polygon","coordinates":[[[-90.1368,33.7216],[-90.137,33.6769],[-89.5069,33.6776],[-89.5074,33.8675],[-89.7556,33.8674],[-89.7691,33.8693],[-89.7693,33.8971],[-89.9261,33.898],[-89.9263,33.8239],[-89.9783,33.824],[-89.9793,33.8097],[-90.1365,33.8093],[-90.1368,33.7216]]]},"properties":{"STATE":"28","COUNTY":"043","NAME":"Grenada County","GEOID":"28043"}},{"type":"Feature","geometry":{"type":"Polygon","coordinates":[[[-91.6251,31.0054],[-91.6369,30.9994],[-91.0602,30.999],[-91.0595,31.2819],[-91.0798,31.2888],[-91.0954,31.321],[-91.1115,31.32],[-91.1521,31.3487],[-91.1869,31.3493],[-91.2131,31.3571],[-91.2311,31.3732],[-91.2571,31.3601],[-91.2729,31.3682],[-91.283,31.3578],[-91.3063,31.3609],[-91.3309,31.3518],[-91.3417,31.34],[-91.3578,31.3429],[-91.3667,31.3359],[-91.3843,31.3354],[-91.3917,31.3248],[-91.413,31.3239],[-91.424,31.315],[-91.4684,31.3196],[-91.4711,31.2856],[-91.4949,31.2843],[-91.4974,31.2764],[-91.4773,31.2599],[-91.4788,31.239],[-91.487,31.2275],[-91.5073,31.226],[-91.5301,31.2148],[-91.5304,31.2304],[-91.5409,31.2383],[-91.5605,31.2356],[-91.5757,31.2245],[-91.5971,31.1635],[-91.6242,31.1337],[-91.6265,31.1191],[-91.6215,31.1103],[-91.5676,31.0702],[-91.5599,31.0541],[-91.5644,31.039],[-91.5784,31.024],[-91.6251,31.0054]]]},"properties":{"STATE":"28","COUNTY":"157","NAME":"Wilkinson County","GEOID":"28157"}},{"type":"Feature","geometry":{"type":"Polygon","coordinates":[[[-89.7303,32.6342],[-89.7302,32.5772],[-89.3176,32.5765],[-89.3192,32.9317],[-89.7302,32.9299],[-89.7303,32.6342]]]},"properties":{"STATE":"28","COUNTY":"079","NAME":"Leake County","GEOID":"28079"}},{"type":"Feature","geometry":{"type":"Polygon","coordinates":[[[-89.0345,33.7394],[-89.036,33.6336],[-89.0185,33.6354],[-89.0186,33.5621],[-88.7355,33.5652],[-88.7067,33.5593],[-88.6919,33.5652],[-88.6715,33.5651],[-88.6716,33.5066],[-88.6094,33.5069],[-88.5603,33.5257],[-88.5528,33.5222],[-88.5312,33.5375],[-88.523,33.5509],[-88.4803,33.5227],[-88.472,33.5256],[-88.4925,33.5432],[-88.497,33.565],[-88.4899,33.5634],[-88.4946,33.5792],[-88.4752,33.6035],[-88.5062,33.6143],[-88.4985,33.6416],[-88.5139,33.6505],[-88.5131,33.6609],[-88.4917,33.6773],[-88.7196,33.6803],[-88.72,33.8113],[-88.9312,33.8124],[-88.9316,33.7543],[-89.0348,33.7542],[-89.0345,33.7394]]]},"properties":{"STATE":"28","COUNTY":"025","NAME":"Clay County","GEOID":"28025"}},{"type":"Feature","geometry":{"type":"Polygon","coordinates":[[[-91.1568,31.3687],[-91.1582,31.3467],[-91.1521,31.3487],[-91.1115,31.32],[-91.0283,31.3357],[-91.018,31.3475],[-90.9876,31.3369],[-90.983,31.3487],[-90.6333,31.3493],[-90.6332,31.6114],[-91.1539,31.6101],[-91.1568,31.3687]]]},"properties":{"STATE":"28","COUNTY":"037","NAME":"Franklin County","GEOID":"28037"}},{"type":"Feature","geometry":{"type":"Polygon","coordinates":[[[-89.6898,30.4593],[-89.6834,30.4518],[-89.6785,30.414],[-89.6841,30.4126],[-89.6837,30.4059],[-89.6572,30.3565],[-89.6297,30.3393],[-89.6262,30.3143],[-89.6404,30.3068],[-89.6434,30.2877],[-89.6314,30.2797],[-89.6318,30.2569],[-89.6142,30.2446],[-89.6159,30.2232],[-89.5967,30.2118],[-89.5858,30.1921],[-89.5702,30.1803],[-89.5415,30.1954],[-89.5334,30.1948],[-89.5245,30.1808],[-89.5032,30.1831],[-89.4802,30.1938],[-89.4698,30.1763],[-89.4613,30.1747],[-89.4479,30.1854],[-89.4475,30.2051],[-89.4304,30.2232],[-89.4193,30.2543],[-89.3795,30.2704],[-89.3657,30.2849],[-89.3299,30.3029],[-89.3225,30.3149],[-89.3325,30.3379],[-89.3661,30.3522],[-89.3532,30.3688],[-89.3409,30.3729],[-89.3414,30.6477],[-89.5442,30.6484],[-89.5445,30.5169],[-89.5875,30.5171],[-89.5957,30.5025],[-89.6471,30.5027],[-89.647,30.4589],[-89.6898,30.4593]]]},"properties":{"STATE":"28","COUNTY":"045","NAME":"Hancock County","GEOID":"28045"}},{"type":"Feature","geometry":{"type":"Polygon","coordinates":[[[-90.4503,33.96],[-90.4516,33.8114],[-90.1826,33.8093],[-90.1714,33.7897],[-90.1856,33.7655],[-90.2042,33.7594],[-90.2277,33.7593],[-90.2338,33.7655],[-90.2945,33.751],[-90.3139,33.7257],[-90.3027,33.7028],[-90.2691,33.6972],[-90.2523,33.7303],[-90.2409,33.7372],[-90.2204,33.7221],[-90.1368,33.7216],[-90.1365,33.8093],[-89.9793,33.8097],[-89.9783,33.824],[-89.9263,33.8239],[-89.9255,34.1406],[-89.9315,34.1643],[-89.9586,34.1596],[-90.1355,34.1601],[-90.1357,34.0729],[-90.451,34.0729],[-90.4503,33.96]]]},"properties":{"STATE":"28","COUNTY":"135","NAME":"Tallahatchie County","GEOID":"28135"}},{"type":"Feature","geometry":{"type":"Polygon","coordinates":[[[-90.4319,33.0959],[-90.4283,33.0573],[-90.4154,33.049],[-90.3798,33.0421],[-90.3828,33.0259],[-90.364,33.0106],[-90.3462,33.0224],[-90.3383,33.0101],[-89.9659,32.8796],[-89.8964,32.9326],[-89.8899,32.9706],[-89.8736,33.001],[-89.8364,33.04],[-89.8334,33.0624],[-89.8242,33.0641],[-89.8271,33.089],[-89.8193,33.1001],[-89.8249,33.1102],[-89.8063,33.1129],[-89.7938,33.1307],[-89.7939,33.1595],[-89.7833,33.1624],[-89.7743,33.1769],[-89.7767,33.1938],[-89.7504,33.2055],[-89.7494,33.2145],[-90.3215,33.3751],[-90.3181,33.363],[-90.295,33.3618],[-90.2796,33.3395],[-90.2864,33.3127],[-90.3057,33.3103],[-90.3095,33.3204],[-90.3316,33.3028],[-90.3306,33.1354],[-90.3469,33.132],[-90.3555,33.1131],[-90.3528,33.0949],[-90.3662,33.1037],[-90.3689,33.1255],[-90.3863,33.1128],[-90.3655,33.0955],[-90.373,33.0841],[-90.3849,33.0873],[-90.3934,33.1017],[-90.4163,33.1041],[-90.4185,33.1147],[-90.4319,33.0959]]]},"properties":{"STATE":"28","COUNTY":"051","NAME":"Holmes County","GEOID":"28051"}},{"type":"Feature","geometry":{"type":"Polygon","coordinates":[[[-89.0884,33.5332],[-89.0883,33.286],[-88.6706,33.2869],[-88.6715,33.5651],[-88.6919,33.5652],[-88.7067,33.5593],[-88.7355,33.5652],[-89.0883,33.562],[-89.0884,33.5332]]]},"properties":{"STATE":"28","COUNTY":"105","NAME":"Oktibbeha County","GEOID":"28105"}},{"type":"Feature","geometry":{"type":"Polygon","coordinates":[[[-90.9633,32.8382],[-90.9649,32.6628],[-90.7232,32.6621],[-90.7122,32.6874],[-90.6993,32.6893],[-90.6949,32.6711],[-90.6842,32.6637],[-90.6677,32.671],[-90.6644,32.6891],[-90.6933,32.7065],[-90.7137,32.7073],[-90.7426,32.7292],[-90.7361,32.756],[-90.7176,32.748],[-90.6931,32.7543],[-90.6898,32.7659],[-90.7077,32.7778],[-90.7154,32.7899],[-90.7095,32.8069],[-90.6946,32.8156],[-90.7234,32.8189],[-90.741,32.8091],[-90.7486,32.8182],[-90.7596,32.814],[-90.7598,32.8358],[-90.6566,32.9225],[-90.658,33.0965],[-90.9145,33.0974],[-90.914,32.9442],[-90.9402,32.8858],[-90.9402,32.8621],[-90.956,32.8529],[-90.9633,32.8382]]]},"properties":{"STATE":"28","COUNTY":"125","NAME":"Sharkey County","GEOID":"28125"}},{"type":"Feature","geometry":{"type":"Polygon","coordinates":[[[-90.4532,33.3295],[-90.4538,33.2673],[-90.4132,33.2353],[-90.4108,33.2451],[-90.3701,33.2412],[-90.3753,33.2468],[-90.3672,33.2603],[-90.3767,33.2803],[-90.3648,33.2758],[-90.357,33.2971],[-90.3438,33.3091],[-90.3316,33.3028],[-90.3095,33.3204],[-90.3057,33.3103],[-90.2864,33.3127],[-90.2796,33.3395],[-90.295,33.3618],[-90.3181,33.363],[-90.3215,33.3751],[-90.1746,33.3334],[-90.1748,33.417],[-90.1378,33.4165],[-90.1376,33.4591],[-90.1014,33.4589],[-90.102,33.6038],[-90.1303,33.6039],[-90.1079,33.6063],[-90.1089,33.6295],[-90.103,33.6607],[-90.1203,33.6643],[-90.1278,33.677],[-90.137,33.6769],[-90.1368,33.7216],[-90.2204,33.7221],[-90.2409,33.7372],[-90.2523,33.7303],[-90.2691,33.6972],[-90.3027,33.7028],[-90.3139,33.7257],[-90.2945,33.751],[-90.2338,33.7655],[-90.2277,33.7593],[-90.2042,33.7594],[-90.1856,33.7655],[-90.1714,33.7897],[-90.1826,33.8093],[-90.4516,33.8114],[-90.4532,33.3295]]]},"properties":{"STATE":"28","COUNTY":"083","NAME":"Leflore County","GEOID":"28083"}},{"type":"Feature","geometry":{"type":"Polygon","coordinates":[[[-90.24,34.6262],[-90.2443,34.6009],[-90.2363,34.605],[-90.2244,34.5764],[-90.2111,34.5731],[-90.2183,34.5595],[-90.1986,34.5544],[-89.6684,34.5544],[-89.6692,34.6858],[-89.7223,34.6855],[-89.7234,34.7723],[-89.91,34.7726],[-89.9155,34.7582],[-89.955,34.7382],[-89.9638,34.7238],[-89.9798,34.7256],[-89.9954,34.7168],[-90.0372,34.7088],[-90.0535,34.7124],[-90.0606,34.7282],[-90.0811,34.7269],[-90.0906,34.7358],[-90.107,34.7333],[-90.1169,34.7524],[-90.1289,34.7605],[-90.1715,34.759],[-90.2002,34.7244],[-90.2135,34.7225],[-90.2314,34.6985],[-90.2204,34.6899],[-90.2249,34.673],[-90.2163,34.6469],[-90.2303,34.6307],[-90.24,34.6262]]]},"properties":{"STATE":"28","COUNTY":"137","NAME":"Tate County","GEOID":"28137"}},{"type":"Feature","geometry":{"type":"Polygon","coordinates":[[[-89.9754,31.5916],[-89.9761,31.5225],[-89.9591,31.5224],[-89.9589,31.3905],[-89.8233,31.39],[-89.8242,31.4341],[-89.5868,31.4337],[-89.5869,31.5134],[-89.5995,31.5351],[-89.6395,31.5595],[-89.6723,31.5645],[-89.717,31.5889],[-89.7351,31.6103],[-89.7556,31.6098],[-89.7551,31.7747],[-89.9746,31.7617],[-89.9754,31.5916]]]},"properties":{"STATE":"28","COUNTY":"065","NAME":"Jefferson Davis County","GEOID":"28065"}},{"type":"Feature","geometry":{"type":"Polygon","coordinates":[[[-88.8255,34.3082],[-88.8245,34.0749],[-88.719,34.0745],[-88.7187,34.0893],[-88.5434,34.089],[-88.5417,34.5092],[-88.7365,34.5089],[-88.7367,34.4947],[-88.7894,34.4949],[-88.7898,34.3937],[-88.8251,34.3939],[-88.8255,34.3082]]]},"properties":{"STATE":"28","COUNTY":"081","NAME":"Lee County","GEOID":"28081"}},{"type":"Feature","geometry":{"type":"Polygon","coordinates":[[[-89.3192,32.9317],[-89.3176,32.5765],[-88.9145,32.577],[-88.9144,32.9266],[-88.9305,32.9192],[-88.9748,32.9265],[-89.0177,32.9264],[-89.0177,32.9313],[-89.3192,32.9317]]]},"properties":{"STATE":"28","COUNTY":"099","NAME":"Neshoba County","GEOID":"28099"}},{"type":"Feature","geometry":{"type":"Polygon","coordinates":[[[-89.2463,34.3793],[-89.2444,34.0739],[-88.8245,34.0749],[-88.825,34.3648],[-88.9285,34.365],[-88.9289,34.3792],[-89.2463,34.3793]]]},"properties":{"STATE":"28","COUNTY":"115","NAME":"Pontotoc County","GEOID":"28115"}},{"type":"Feature","geometry":{"type":"Polygon","coordinates":[[[-91.2306,33.4577],[-91.2338,33.443],[-91.2298,33.4373],[-91.2065,33.4339],[-91.1826,33.4404],[-91.1719,33.4503],[-91.1749,33.48],[-91.1705,33.4917],[-91.1584,33.4961],[-91.1344,33.4832],[-91.1233,33.4713],[-91.117,33.4546],[-91.1188,33.4465],[-91.1381,33.4272],[-91.1738,33.4178],[-91.2023,33.4168],[-91.2093,33.4067],[-91.2061,33.3998],[-91.183,33.3856],[-91.1481,33.3788],[-91.1305,33.3846],[-91.0952,33.4182],[-91.0974,33.434],[-91.0881,33.4504],[-91.073,33.4558],[-91.059,33.4492],[-91.0584,33.4282],[-91.0741,33.4078],[-91.1234,33.3613],[-91.1416,33.3502],[-91.1416,33.2998],[-91.1257,33.2804],[-91.1281,33.2687],[-91.1173,33.2606],[-91.1069,33.2424],[-91.0964,33.243],[-91.0853,33.2755],[-91.0764,33.2844],[-91.061,33.2871],[-91.0483,33.2828],[-91.0437,33.2718],[-91.053,33.2475],[-91.0812,33.2225],[-91.0991,33.2196],[-91.0813,33.1843],[-91.0845,33.1411],[-91.0899,33.1344],[-91.1097,33.1295],[-91.1468,33.1301],[-91.161,33.1414],[-91.184,33.1417],[-91.1964,33.1329],[-91.2021,33.1223],[-91.1996,33.1065],[-91.1801,33.0973],[-91.1719,33.0881],[-91.1491,33.0813],[-91.1239,33.0632],[-91.1204,33.0546],[-91.1267,33.0363],[-91.1543,33.0243],[-91.1655,33.0113],[-90.9143,33.0077],[-90.9145,33.0974],[-90.7018,33.0963],[-90.6796,33.1025],[-90.6796,33.1146],[-90.6997,33.122],[-90.6985,33.138],[-90.6881,33.1485],[-90.6857,33.1896],[-90.6803,33.202],[-90.7332,33.233],[-90.7277,33.2675],[-90.7163,33.27],[-90.7638,33.2704],[-90.761,33.5281],[-91.2182,33.5294],[-91.1895,33.5095],[-91.1867,33.4997],[-91.2103,33.4675],[-91.2306,33.4577]]]},"properties":{"STATE":"28","COUNTY":"151","NAME":"Washington County","GEOID":"28151"}},{"type":"Feature","geometry":{"type":"Polygon","coordinates":[[[-91.214,32.9303],[-91.2116,32.9196],[-91.1968,32.9068],[-91.1702,32.8994],[-91.1517,32.9019],[-91.134,32.9177],[-91.1313,32.9269],[-91.1379,32.9528],[-91.1307,32.9623],[-91.1386,32.9714],[-91.1355,32.9797],[-91.1066,32.9889],[-91.0969,32.9864],[-91.0868,32.9763],[-91.0804,32.9628],[-91.0819,32.9448],[-91.0648,32.9265],[-91.0644,32.9011],[-91.0706,32.8887],[-91.1056,32.8584],[-91.1279,32.8551],[-91.145,32.8429],[-91.1617,32.8125],[-91.1644,32.7858],[-91.1569,32.7803],[-91.1653,32.7513],[-91.1545,32.7423],[-91.1232,32.7428],[-91.0772,32.7325],[-91.057,32.7256],[-91.0547,32.7192],[-91.0639,32.7029],[-91.1183,32.6741],[-91.1376,32.6506],[-91.1498,32.644],[-91.1537,32.6352],[-91.1513,32.6159],[-91.1411,32.5972],[-91.1199,32.5848],[-91.0498,32.6072],[-91.0384,32.6364],[-91.0258,32.6466],[-91.0143,32.6405],[-91.0035,32.6248],[-91.0046,32.6098],[-91.0435,32.5763],[-90.964,32.5756],[-90.9634,32.4112],[-90.9512,32.4444],[-90.9265,32.4506],[-90.9157,32.4441],[-90.8947,32.4486],[-90.8815,32.4408],[-90.8698,32.4513],[-90.8614,32.4421],[-90.8606,32.5752],[-90.7628,32.5774],[-90.7283,32.5663],[-90.7201,32.6189],[-90.6976,32.6251],[-90.6914,32.6363],[-90.7128,32.6423],[-90.7232,32.6621],[-90.9649,32.6628],[-90.9633,32.8382],[-90.956,32.8529],[-90.9402,32.8621],[-90.9402,32.8858],[-90.914,32.9442],[-90.9143,33.0077],[-91.1655,33.0113],[-91.169,32.9921],[-91.2018,32.9612],[-91.1994,32.9523],[-91.214,32.9303]]]},"properties":{"STATE":"28","COUNTY":"055","NAME":"Issaquena County","GEOID":"28055"}},{"type":"Feature","geometry":{"type":"Polygon","coordinates":[[[-90.7269,32.2415],[-90.7183,32.0484],[-90.2303,32.0497],[-90.2363,32.0647],[-90.2267,32.0798],[-90.2475,32.0991],[-90.241,32.1217],[-90.2484,32.1537],[-90.2419,32.1551],[-90.2435,32.1767],[-90.2326,32.1736],[-90.1949,32.1879],[-90.1817,32.2016],[-90.191,32.2097],[-90.1854,32.2186],[-90.1905,32.2267],[-90.1964,32.2253],[-90.2085,32.2352],[-90.2053,32.2519],[-90.1837,32.2622],[-90.1868,32.2726],[-90.1789,32.2816],[-90.1514,32.291],[-90.161,32.3082],[-90.1506,32.3117],[-90.153,32.3208],[-90.1101,32.3444],[-90.114,32.3605],[-90.0815,32.3953],[-90.0663,32.3941],[-90.0657,32.3995],[-90.2438,32.4001],[-90.2436,32.4875],[-90.4499,32.4884],[-90.45,32.5738],[-90.454,32.5583],[-90.4923,32.5306],[-90.5237,32.5188],[-90.5222,32.5031],[-90.5538,32.5076],[-90.5869,32.497],[-90.6041,32.4813],[-90.5978,32.4503],[-90.5858,32.4451],[-90.5999,32.4352],[-90.6,32.4246],[-90.6155,32.4094],[-90.6177,32.393],[-90.6355,32.3681],[-90.628,32.3395],[-90.6836,32.3528],[-90.7047,32.3473],[-90.6993,32.3311],[-90.7054,32.3247],[-90.6968,32.3062],[-90.7067,32.2923],[-90.7021,32.2864],[-90.7146,32.276],[-90.7142,32.2632],[-90.7262,32.2603],[-90.7195,32.2528],[-90.714,32.2542],[-90.7269,32.2415]]]},"properties":{"STATE":"28","COUNTY":"049","NAME":"Hinds County","GEOID":"28049"}},{"type":"Feature","geometry":{"type":"Polygon","coordinates":[[[-89.9315,34.1643],[-89.9255,34.1406],[-89.9261,33.898],[-89.7693,33.8971],[-89.7691,33.8693],[-89.7556,33.8674],[-89.5074,33.8675],[-89.5094,34.191],[-89.721,34.1925],[-89.7214,34.1635],[-89.9315,34.1643]]]},"properties":{"STATE":"28","COUNTY":"161","NAME":"Yalobusha County","GEOID":"28161"}},{"type":"Feature","geometry":{"type":"Polygon","coordinates":[[[-88.9138,32.2242],[-88.9105,31.8266],[-88.7634,31.8359],[-88.6909,31.8466],[-88.6225,31.8572],[-88.4732,31.8939],[-88.4313,32.2277],[-88.9138,32.2242]]]},"properties":{"STATE":"28","COUNTY":"023","NAME":"Clarke County","GEOID":"28023"}},{"type":"Feature","geometry":{"type":"Polygon","coordinates":[[[-91.2349,31.8769],[-91.2481,31.8698],[-91.0137,31.8619],[-90.842,31.8265],[-90.8404,31.8041],[-90.8527,31.7854],[-90.7363,31.7861],[-90.733,31.83],[-90.7168,31.8458],[-90.7144,31.9776],[-90.7286,32.2251],[-90.7385,32.2056],[-90.7544,32.2062],[-90.7504,32.197],[-90.7772,32.1936],[-90.7901,32.1747],[-90.7807,32.1719],[-90.7748,32.154],[-90.7924,32.1442],[-90.8033,32.1526],[-90.8192,32.1373],[-90.8297,32.1449],[-90.8261,32.1563],[-90.8438,32.159],[-90.8439,32.1525],[-90.8549,32.1458],[-90.8438,32.1386],[-90.8461,32.1282],[-90.8705,32.12],[-90.8751,32.1276],[-90.8826,32.1145],[-90.9077,32.1319],[-90.9243,32.0975],[-90.9138,32.0961],[-90.918,32.0807],[-90.9451,32.0799],[-90.9577,32.0903],[-90.963,32.1053],[-90.9703,32.0946],[-90.9903,32.097],[-91.0307,32.1143],[-91.0347,32.1011],[-91.0815,32.0778],[-91.0791,32.0503],[-91.0823,32.0476],[-91.1037,32.0503],[-91.1349,32.0804],[-91.1451,32.0814],[-91.1558,32.0756],[-91.162,32.0654],[-91.1563,32.0527],[-91.1451,32.0466],[-91.0881,32.0345],[-91.0759,32.0168],[-91.1041,31.9904],[-91.1644,31.9826],[-91.1774,31.9733],[-91.1883,31.961],[-91.1932,31.9357],[-91.1847,31.9351],[-91.1806,31.918],[-91.2028,31.908],[-91.2349,31.8769]]]},"properties":{"STATE":"28","COUNTY":"021","NAME":"Claiborne County","GEOID":"28021"}},{"type":"Feature","geometry":{"type":"Polygon","coordinates":[[[-88.7354,34.5965],[-88.7365,34.5089],[-88.5417,34.5092],[-88.5421,34.4653],[-88.3292,34.4636],[-88.3307,34.7407],[-88.3483,34.7409],[-88.3484,34.7554],[-88.7185,34.7568],[-88.7178,34.5965],[-88.7354,34.5965]]]},"properties":{"STATE":"28","COUNTY":"117","NAME":"Prentiss County","GEOID":"28117"}},{"type":"Feature","geometry":{"type":"Polygon","coordinates":[[[-90.588,34.6393],[-90.5916,34.621],[-90.5855,34.6085],[-90.5396,34.5539],[-90.5425,34.5402],[-90.5682,34.5246],[-90.3995,34.4238],[-90.3019,34.4245],[-90.3043,34.5096],[-90.1985,34.5111],[-90.1986,34.5544],[-90.2183,34.5595],[-90.2111,34.5731],[-90.2244,34.5764],[-90.2363,34.605],[-90.2443,34.6009],[-90.24,34.6262],[-90.2303,34.6307],[-90.2163,34.6469],[-90.2249,34.673],[-90.2204,34.6899],[-90.2314,34.6985],[-90.2135,34.7225],[-90.2002,34.7244],[-90.2021,34.8604],[-90.3047,34.8603],[-90.3034,34.852],[-90.3154,34.8443],[-90.3375,34.8577],[-90.3894,34.8307],[-90.4369,34.8255],[-90.448,34.8416],[-90.4321,34.8614],[-90.43,34.871],[-90.4374,34.8837],[-90.4483,34.8892],[-90.4702,34.889],[-90.4783,34.8842],[-90.4848,34.8657],[-90.4571,34.8201],[-90.4685,34.8133],[-90.4766,34.7971],[-90.448,34.742],[-90.4628,34.7283],[-90.4833,34.7222],[-90.5,34.7217],[-90.5242,34.7314],[-90.4949,34.7571],[-90.4928,34.7725],[-90.5113,34.7902],[-90.5111,34.7983],[-90.5329,34.8001],[-90.5408,34.7958],[-90.5478,34.7833],[-90.5394,34.7553],[-90.5456,34.7389],[-90.5636,34.7378],[-90.572,34.7144],[-90.5334,34.698],[-90.5167,34.6956],[-90.4742,34.7053],[-90.4662,34.6991],[-90.4628,34.6864],[-90.4659,34.6749],[-90.5132,34.6334],[-90.5321,34.6273],[-90.5424,34.6289],[-90.5516,34.6363],[-90.5549,34.6467],[-90.5408,34.681],[-90.5529,34.6906],[-90.57,34.6924],[-90.5676,34.6815],[-90.5718,34.6674],[-90.588,34.6393]]]},"properties":{"STATE":"28","COUNTY":"143","NAME":"Tunica County","GEOID":"28143"}},{"type":"Feature","geometry":{"type":"Polygon","coordinates":[[[-90.7368,31.6985],[-90.7373,31.6111],[-90.6332,31.6114],[-90.6333,31.3493],[-90.2439,31.3503],[-90.2452,31.7175],[-90.28,31.6999],[-90.3801,31.7002],[-90.3794,31.6852],[-90.4136,31.6853],[-90.4196,31.7005],[-90.7368,31.6985]]]},"properties":{"STATE":"28","COUNTY":"085","NAME":"Lincoln County","GEOID":"28085"}},{"type":"Feature","geometry":{"type":"Polygon","coordinates":[[[-88.3655,34.8543],[-88.3655,34.7556],[-88.3484,34.7554],[-88.3483,34.7409],[-88.3307,34.7407],[-88.3292,34.4636],[-88.1563,34.4632],[-88.0979,34.8922],[-88.1367,34.9076],[-88.1546,34.9224],[-88.2001,34.9956],[-88.3635,34.9956],[-88.3655,34.8543]]]},"properties":{"STATE":"28","COUNTY":"141","NAME":"Tishomingo County","GEOID":"28141"}},{"type":"Feature","geometry":{"type":"Polygon","coordinates":[[[-90.5482,31.3496],[-90.5476,30.9997],[-90.2596,31.0007],[-90.2604,31.3503],[-90.5482,31.3496]]]},"properties":{"STATE":"28","COUNTY":"113","NAME":"Pike County","GEOID":"28113"}},{"type":"Feature","geometry":{"type":"Polygon","coordinates":[[[-91.1737,32.1642],[-91.1735,32.149],[-91.1628,32.1327],[-91.1113,32.125],[-91.0816,32.134],[-91.0532,32.1242],[-91.0485,32.1502],[-91.0589,32.1713],[-91.0576,32.1774],[-91.0502,32.1785],[-91.025,32.1626],[-91.0062,32.157],[-91.0064,32.14],[-91.0176,32.1252],[-91.0309,32.1206],[-91.0307,32.1143],[-90.9903,32.097],[-90.9703,32.0946],[-90.963,32.1053],[-90.9577,32.0903],[-90.9451,32.0799],[-90.918,32.0807],[-90.9138,32.0961],[-90.9243,32.0975],[-90.9077,32.1319],[-90.8826,32.1145],[-90.8751,32.1276],[-90.8705,32.12],[-90.8461,32.1282],[-90.8438,32.1386],[-90.8549,32.1458],[-90.8439,32.1525],[-90.8438,32.159],[-90.8261,32.1563],[-90.8297,32.1449],[-90.8192,32.1373],[-90.8033,32.1526],[-90.7924,32.1442],[-90.7748,32.154],[-90.7807,32.1719],[-90.7901,32.1747],[-90.7772,32.1936],[-90.7504,32.197],[-90.7544,32.2062],[-90.7385,32.2056],[-90.7286,32.2251],[-90.7269,32.2415],[-90.714,32.2542],[-90.7195,32.2528],[-90.7262,32.2603],[-90.7142,32.2632],[-90.7146,32.276],[-90.7021,32.2864],[-90.7067,32.2923],[-90.6968,32.3062],[-90.7054,32.3247],[-90.6993,32.3311],[-90.7047,32.3473],[-90.6836,32.3528],[-90.628,32.3395],[-90.6355,32.3681],[-90.6177,32.393],[-90.6155,32.4094],[-90.6,32.4246],[-90.5999,32.4352],[-90.5858,32.4451],[-90.5978,32.4503],[-90.6041,32.4813],[-90.5869,32.497],[-90.5538,32.5076],[-90.5539,32.5319],[-90.5879,32.5318],[-90.588,32.5461],[-90.6546,32.546],[-90.6555,32.5898],[-90.6902,32.5894],[-90.6899,32.6187],[-90.7201,32.6189],[-90.7283,32.5663],[-90.7628,32.5774],[-90.8606,32.5752],[-90.8614,32.4421],[-90.8698,32.4513],[-90.8815,32.4408],[-90.8947,32.4486],[-90.9157,32.4441],[-90.9265,32.4506],[-90.9512,32.4444],[-90.9634,32.4112],[-90.964,32.5756],[-91.0435,32.5763],[-91.0765,32.5588],[-91.057,32.5383],[-90.9949,32.5086],[-90.9872,32.4957],[-90.9907,32.4877],[-91.0042,32.4821],[-91.0381,32.4904],[-91.0509,32.5001],[-91.0674,32.5232],[-91.0979,32.5448],[-91.1013,32.5256],[-91.1167,32.5001],[-91.116,32.4831],[-91.0953,32.4587],[-91.0529,32.4384],[-91.0296,32.4335],[-90.9939,32.4508],[-90.9785,32.447],[-90.9696,32.4395],[-90.9678,32.4183],[-90.9941,32.4039],[-91.0045,32.3681],[-91.0001,32.3577],[-90.9867,32.3518],[-90.9124,32.3395],[-90.8978,32.3544],[-90.8889,32.3732],[-90.8756,32.3724],[-90.8761,32.3578],[-90.8937,32.3281],[-90.934,32.2903],[-90.9514,32.2832],[-90.9641,32.2969],[-90.9795,32.2937],[-90.983,32.2703],[-90.9694,32.2525],[-90.9803,32.2436],[-90.9834,32.2118],[-90.9914,32.1994],[-91.0035,32.2008],[-91.0029,32.2231],[-91.0266,32.2387],[-91.0465,32.2411],[-91.0614,32.2186],[-91.0711,32.2261],[-91.0837,32.2265],[-91.113,32.2065],[-91.1336,32.2134],[-91.158,32.202],[-91.1642,32.1969],[-91.1737,32.1642]]]},"properties":{"STATE":"28","COUNTY":"149","NAME":"Warren County","GEOID":"28149"}},{"type":"Feature","geometry":{"type":"Polygon","coordinates":[[[-91.3637,31.7804],[-91.3647,31.7703],[-91.3486,31.7658],[-91.3013,31.7667],[-91.286,31.7721],[-91.263,31.767],[-91.2596,31.7613],[-91.2634,31.7545],[-91.2755,31.7455],[-91.3166,31.7453],[-91.2918,31.6914],[-91.3001,31.6722],[-91.267,31.6639],[-91.2693,31.6473],[-91.2411,31.6369],[-91.2333,31.6294],[-91.1538,31.6305],[-91.1539,31.6101],[-90.7373,31.6111],[-90.7363,31.7861],[-90.8527,31.7854],[-90.8404,31.8041],[-90.842,31.8265],[-91.0137,31.8619],[-91.2481,31.8698],[-91.2644,31.8655],[-91.269,31.8587],[-91.2666,31.8512],[-91.245,31.8314],[-91.2556,31.8127],[-91.2692,31.8092],[-91.2822,31.8148],[-91.2894,31.8287],[-91.2934,31.8602],[-91.3338,31.8533],[-91.3457,31.8429],[-91.3637,31.7804]]]},"properties":{"STATE":"28","COUNTY":"063","NAME":"Jefferson County","GEOID":"28063"}},{"type":"Feature","geometry":{"type":"MultiPolygon","coordinates":[[[[-88.8845,30.7356],[-88.8831,30.4188],[-88.8676,30.4189],[-88.8133,30.3791],[-88.8116,30.3849],[-88.7717,30.3654],[-88.7469,30.3476],[-88.7289,30.3427],[-88.7006,30.3437],[-88.6638,30.3621],[-88.613,30.354],[-88.6,30.3566],[-88.5819,30.3311],[-88.5678,30.3296],[-88.5362,30.3433],[-88.5225,30.3401],[-88.5048,30.3215],[-88.4801,30.3183],[-88.4538,30.3296],[-88.4466,30.3377],[-88.4465,30.3478],[-88.4339,30.3547],[-88.4188,30.3539],[-88.4099,30.3421],[-88.394,30.3493],[-88.3991,30.3607],[-88.395,30.3694],[-88.4125,30.7356],[-88.8845,30.7356]]],[[[-88.5107,30.217],[-88.5086,30.2056],[-88.4944,30.1968],[-88.4538,30.1893],[-88.4294,30.1929],[-88.4046,30.2062],[-88.4085,30.2188],[-88.4532,30.2065],[-88.4924,30.2192],[-88.5107,30.217]]],[[[-88.772,30.2455],[-88.7684,30.2368],[-88.7572,30.2333],[-88.715,30.2377],[-88.6718,30.2232],[-88.6113,30.217],[-88.5874,30.2192],[-88.6088,30.232],[-88.656,30.2394],[-88.715,30.257],[-88.772,30.2455]]]]},"properties":{"STATE":"28","COUNTY":"059","NAME":"Jackson County","GEOID":"28059"}},{"type":"Feature","geometry":{"type":"Polygon","coordinates":[[[-90.1986,34.5544],[-90.1941,34.3014],[-90.1345,34.2656],[-90.1355,34.1601],[-89.7214,34.1635],[-89.7213,34.5543],[-90.1986,34.5544]]]},"properties":{"STATE":"28","COUNTY":"107","NAME":"Panola County","GEOID":"28107"}},{"type":"Feature","geometry":{"type":"Polygon","coordinates":[[[-88.9154,32.5003],[-88.9138,32.2242],[-88.4313,32.2277],[-88.3889,32.5781],[-88.9145,32.577],[-88.9154,32.5003]]]},"properties":{"STATE":"28","COUNTY":"075","NAME":"Lauderdale County","GEOID":"28075"}},{"type":"Feature","geometry":{"type":"Polygon","coordinates":[[[-90.3177,34.8711],[-90.314,34.8637],[-90.3047,34.8603],[-90.2021,34.8604],[-90.2002,34.7244],[-90.1715,34.759],[-90.1289,34.7605],[-90.1169,34.7524],[-90.107,34.7333],[-90.0906,34.7358],[-90.0811,34.7269],[-90.0606,34.7282],[-90.0535,34.7124],[-90.0372,34.7088],[-89.9954,34.7168],[-89.9798,34.7256],[-89.9638,34.7238],[-89.955,34.7382],[-89.9155,34.7582],[-89.91,34.7726],[-89.7234,34.7723],[-89.7243,34.9952],[-90.3093,34.9957],[-90.2961,34.9765],[-90.2447,34.947],[-90.2418,34.9157],[-90.2465,34.9034],[-90.2561,34.8945],[-90.3177,34.8711]]]},"properties":{"STATE":"28","COUNTY":"033","NAME":"DeSoto County","GEOID":"28033"}},{"type":"Feature","geometry":{"type":"Polygon","coordinates":[[[-89.0886,34.7481],[-89.0885,34.5982],[-88.7178,34.5965],[-88.7185,34.7568],[-88.7531,34.757],[-88.753,34.8588],[-88.8234,34.8613],[-88.823,34.9952],[-89.0171,34.9949],[-89.0176,34.8587],[-89.035,34.8588],[-89.0353,34.8153],[-89.0881,34.8153],[-89.0886,34.7481]]]},"properties":{"STATE":"28","COUNTY":"139","NAME":"Tippah County","GEOID":"28139"}},{"type":"Feature","geometry":{"type":"Polygon","coordinates":[[[-88.8131,33.2864],[-88.8128,32.926],[-88.3479,32.9291],[-88.3044,33.2883],[-88.8131,33.2864]]]},"properties":{"STATE":"28","COUNTY":"103","NAME":"Noxubee County","GEOID":"28103"}},{"type":"Feature","geometry":{"type":"Polygon","coordinates":[[[-90.4514,32.5786],[-90.4499,32.4884],[-90.2436,32.4875],[-90.2438,32.4001],[-90.0657,32.3995],[-90.0754,32.4186],[-90.0629,32.42],[-90.0681,32.4386],[-90.0407,32.4417],[-90.0409,32.4495],[-90.0138,32.4801],[-89.9606,32.4914],[-89.9398,32.5137],[-89.9279,32.5155],[-89.9233,32.5289],[-89.8961,32.5411],[-89.896,32.5536],[-89.8863,32.5632],[-89.8751,32.5592],[-89.8638,32.5693],[-89.8589,32.5848],[-89.8491,32.5826],[-89.84,32.5933],[-89.8269,32.5846],[-89.7841,32.5869],[-89.7709,32.6061],[-89.7303,32.6342],[-89.73,32.8851],[-89.9659,32.8796],[-89.9981,32.8319],[-90.0174,32.8271],[-90.0173,32.8037],[-90.0325,32.7599],[-90.0424,32.7441],[-90.0761,32.7295],[-90.0996,32.7003],[-90.1156,32.7046],[-90.1373,32.6988],[-90.1414,32.6851],[-90.1464,32.6918],[-90.1808,32.6799],[-90.1927,32.6658],[-90.224,32.661],[-90.2263,32.6682],[-90.2447,32.6587],[-90.2836,32.6555],[-90.2832,32.646],[-90.2881,32.6418],[-90.3041,32.6451],[-90.3228,32.6156],[-90.3363,32.6062],[-90.3456,32.6128],[-90.3814,32.5959],[-90.4044,32.5748],[-90.4383,32.5857],[-90.4514,32.5786]]]},"properties":{"STATE":"28","COUNTY":"089","NAME":"Madison County","GEOID":"28089"}},{"type":"Feature","geometry":{"type":"Polygon","coordinates":[[[-89.19,33.8117],[-89.1918,33.7386],[-89.0345,33.7394],[-89.0348,33.7542],[-88.9316,33.7543],[-88.9312,33.8124],[-88.72,33.8113],[-88.719,34.0745],[-89.1392,34.0741],[-89.1379,33.8121],[-89.19,33.8117]]]},"properties":{"STATE":"28","COUNTY":"017","NAME":"Chickasaw County","GEOID":"28017"}},{"type":"Feature","geometry":{"type":"Polygon","coordinates":[[[-90.7598,32.8358],[-90.7596,32.814],[-90.7486,32.8182],[-90.741,32.8091],[-90.7234,32.8189],[-90.6946,32.8156],[-90.7095,32.8069],[-90.7154,32.7899],[-90.7077,32.7778],[-90.6898,32.7659],[-90.6931,32.7543],[-90.7176,32.748],[-90.7361,32.756],[-90.7426,32.7292],[-90.7137,32.7073],[-90.6933,32.7065],[-90.6644,32.6891],[-90.6677,32.671],[-90.6842,32.6637],[-90.6949,32.6711],[-90.6993,32.6893],[-90.7122,32.6874],[-90.7232,32.6621],[-90.7128,32.6423],[-90.6914,32.6363],[-90.6976,32.6251],[-90.7201,32.6189],[-90.6899,32.6187],[-90.6902,32.5894],[-90.6555,32.5898],[-90.6546,32.546],[-90.588,32.5461],[-90.5879,32.5318],[-90.5539,32.5319],[-90.5538,32.5076],[-90.5222,32.5031],[-90.5237,32.5188],[-90.4923,32.5306],[-90.454,32.5583],[-90.4514,32.5786],[-90.4383,32.5857],[-90.4044,32.5748],[-90.3814,32.5959],[-90.3456,32.6128],[-90.3363,32.6062],[-90.3228,32.6156],[-90.3041,32.6451],[-90.2881,32.6418],[-90.2832,32.646],[-90.2836,32.6555],[-90.2447,32.6587],[-90.2263,32.6682],[-90.224,32.661],[-90.1927,32.6658],[-90.1808,32.6799],[-90.1464,32.6918],[-90.1414,32.6851],[-90.1373,32.6988],[-90.1156,32.7046],[-90.0996,32.7003],[-90.0761,32.7295],[-90.0424,32.7441],[-90.0325,32.7599],[-90.0173,32.8037],[-90.0174,32.8271],[-89.9981,32.8319],[-89.9659,32.8796],[-90.3383,33.0101],[-90.3462,33.0224],[-90.364,33.0106],[-90.4493,33.009],[-90.4499,32.9233],[-90.6566,32.9225],[-90.7598,32.8358]]]},"properties":{"STATE":"28","COUNTY":"163","NAME":"Yazoo County","GEOID":"28163"}},{"type":"Feature","geometry":{"type":"Polygon","coordinates":[[[-91.0954,31.321],[-91.0798,31.2888],[-91.0595,31.2819],[-91.0602,30.999],[-90.5476,30.9997],[-90.5482,31.3496],[-90.983,31.3487],[-90.9876,31.3369],[-91.018,31.3475],[-91.0283,31.3357],[-91.0954,31.321]]]},"properties":{"STATE":"28","COUNTY":"005","NAME":"Amite County","GEOID":"28005"}},{"type":"Feature","geometry":{"type":"Polygon","coordinates":[[[-90.7644,33.4447],[-90.7638,33.2704],[-90.5552,33.2705],[-90.5555,33.3292],[-90.4532,33.3295],[-90.451,33.9857],[-90.657,33.9876],[-90.6586,33.6163],[-90.7635,33.6162],[-90.7605,33.4458],[-90.7644,33.4447]]]},"properties":{"STATE":"28","COUNTY":"133","NAME":"Sunflower County","GEOID":"28133"}},{"type":"Feature","geometry":{"type":"Polygon","coordinates":[[[-89.4516,31.434],[-89.4511,31.3464],[-89.3479,31.3467],[-89.3489,31.0104],[-89.3407,31.001],[-89.3408,30.9099],[-89.138,30.9099],[-89.1382,31.0002],[-89.1462,31.0004],[-89.1461,31.4341],[-89.4516,31.434]]]},"properties":{"STATE":"28","COUNTY":"035","NAME":"Forrest County","GEOID":"28035"}},{"type":"Feature","geometry":{"type":"Polygon","coordinates":[[[-90.2452,31.7175],[-90.2439,31.3503],[-90.1087,31.3509],[-90.0824,31.3288],[-90.053,31.3289],[-90.0405,31.336],[-90.0405,31.3947],[-89.9754,31.3947],[-89.9589,31.3905],[-89.9591,31.5224],[-89.9761,31.5225],[-89.9746,31.7617],[-90.1231,31.752],[-90.1313,31.756],[-90.1841,31.7315],[-90.2452,31.7175]]]},"properties":{"STATE":"28","COUNTY":"077","NAME":"Lawrence County","GEOID":"28077"}},{"type":"Feature","geometry":{"type":"Polygon","coordinates":[[[-89.3226,32.3239],[-89.3227,32.2235],[-88.9138,32.2242],[-88.9145,32.577],[-89.3226,32.5764],[-89.3226,32.3239]]]},"properties":{"STATE":"28","COUNTY":"101","NAME":"Newton County","GEOID":"28101"}},{"type":"Feature","geometry":{"type":"Polygon","coordinates":[[[-88.8235,34.9135],[-88.8214,34.8585],[-88.753,34.8588],[-88.7531,34.757],[-88.3655,34.7556],[-88.3635,34.9956],[-88.823,34.9952],[-88.8235,34.9135]]]},"properties":{"STATE":"28","COUNTY":"003","NAME":"Alcorn County","GEOID":"28003"}},{"type":"Feature","geometry":{"type":"Polygon","coordinates":[[[-89.7213,34.5543],[-89.721,34.1925],[-89.5094,34.191],[-89.5097,34.1621],[-89.2455,34.1612],[-89.2461,34.4956],[-89.2643,34.5054],[-89.2845,34.5069],[-89.3258,34.526],[-89.3364,34.5221],[-89.3536,34.5272],[-89.3788,34.5172],[-89.392,34.5253],[-89.4127,34.5259],[-89.4348,34.5202],[-89.4431,34.5312],[-89.4605,34.5386],[-89.4767,34.554],[-89.7213,34.5543]]]},"properties":{"STATE":"28","COUNTY":"071","NAME":"Lafayette County","GEOID":"28071"}},{"type":"Feature","geometry":{"type":"Polygon","coordinates":[[[-89.3227,32.2235],[-89.3207,31.8743],[-89.3166,31.8021],[-88.9105,31.8266],[-88.9138,32.2242],[-89.3227,32.2235]]]},"properties":{"STATE":"28","COUNTY":"061","NAME":"Jasper County","GEOID":"28061"}},{"type":"Feature","geometry":{"type":"Polygon","coordinates":[[[-89.4012,31.7969],[-89.3992,31.434],[-88.9435,31.4335],[-88.9434,31.8246],[-89.4012,31.7969]]]},"properties":{"STATE":"28","COUNTY":"067","NAME":"Jones County","GEOID":"28067"}},{"type":"Feature","geometry":{"type":"Polygon","coordinates":[[[-90.7363,31.7861],[-90.7368,31.6985],[-90.4196,31.7005],[-90.4136,31.6853],[-90.3794,31.6852],[-90.3801,31.7002],[-90.28,31.6999],[-90.2452,31.7175],[-90.1841,31.7315],[-90.1313,31.756],[-90.1231,31.752],[-90.1288,31.7659],[-90.1075,31.7777],[-90.111,31.7893],[-90.1408,31.7894],[-90.1507,31.7999],[-90.136,31.819],[-90.1592,31.8447],[-90.1365,31.85],[-90.1383,31.8753],[-90.1457,31.8929],[-90.1703,31.9045],[-90.1683,31.9305],[-90.1787,31.9427],[-90.1945,31.9396],[-90.1928,31.9531],[-90.2061,31.988],[-90.2243,31.9966],[-90.2327,32.0083],[-90.2209,32.0189],[-90.2392,32.0195],[-90.2479,32.0315],[-90.2303,32.0497],[-90.7183,32.0484],[-90.7144,31.9776],[-90.7168,31.8458],[-90.733,31.83],[-90.7363,31.7861]]]},"properties":{"STATE":"28","COUNTY":"029","NAME":"Copiah County","GEOID":"28029"}},{"type":"Feature","geometry":{"type":"Polygon","coordinates":[[[-89.4541,33.4332],[-89.4538,33.2859],[-89.3164,33.2856],[-89.3179,33.1089],[-89.2139,33.1094],[-89.2134,33.1975],[-89.1089,33.1981],[-89.1089,33.2859],[-89.0883,33.286],[-89.0884,33.5332],[-89.181,33.5328],[-89.2084,33.5252],[-89.2205,33.5273],[-89.2421,33.5164],[-89.2611,33.5186],[-89.2717,33.5112],[-89.3198,33.4963],[-89.3403,33.4695],[-89.3629,33.4728],[-89.4023,33.4528],[-89.4222,33.4295],[-89.4463,33.4398],[-89.4541,33.4332]]]},"properties":{"STATE":"28","COUNTY":"019","NAME":"Choctaw County","GEOID":"28019"}},{"type":"Feature","geometry":{"type":"Polygon","coordinates":[[[-89.7551,31.7747],[-89.7556,31.6098],[-89.7351,31.6103],[-89.717,31.5889],[-89.6723,31.5645],[-89.6395,31.5595],[-89.5995,31.5351],[-89.5869,31.5134],[-89.5868,31.4337],[-89.3992,31.434],[-89.4012,31.7969],[-89.7551,31.7747]]]},"properties":{"STATE":"28","COUNTY":"031","NAME":"Covington County","GEOID":"28031"}},{"type":"Feature","geometry":{"type":"Polygon","coordinates":[[[-88.915,32.8018],[-88.9145,32.577],[-88.3889,32.5781],[-88.3479,32.9291],[-88.9144,32.9266],[-88.915,32.8018]]]},"properties":{"STATE":"28","COUNTY":"069","NAME":"Kemper County","GEOID":"28069"}},{"type":"Feature","geometry":{"type":"Polygon","coordinates":[[[-89.7709,32.6061],[-89.7841,32.5869],[-89.7301,32.3527],[-89.7304,32.222],[-89.3227,32.2235],[-89.3226,32.5764],[-89.7302,32.5772],[-89.7303,32.6342],[-89.7709,32.6061]]]},"properties":{"STATE":"28","COUNTY":"123","NAME":"Scott County","GEOID":"28123"}},{"type":"Feature","geometry":{"type":"Polygon","coordinates":[[[-89.2462,34.466],[-89.2463,34.3793],[-88.9289,34.3792],[-88.9285,34.365],[-88.825,34.3648],[-88.8251,34.3939],[-88.7898,34.3937],[-88.7894,34.4949],[-88.7367,34.4947],[-88.7354,34.5965],[-89.2456,34.5976],[-89.2462,34.466]]]},"properties":{"STATE":"28","COUNTY":"145","NAME":"Union County","GEOID":"28145"}},{"type":"Feature","geometry":{"type":"Polygon","coordinates":[[[-90.2419,32.1551],[-90.2484,32.1537],[-90.241,32.1217],[-90.2475,32.0991],[-90.2267,32.0798],[-90.2363,32.0647],[-90.2303,32.0497],[-89.7301,32.0471],[-89.7301,32.3527],[-89.7841,32.5869],[-89.8269,32.5846],[-89.84,32.5933],[-89.8491,32.5826],[-89.8589,32.5848],[-89.8638,32.5693],[-89.8751,32.5592],[-89.8863,32.5632],[-89.896,32.5536],[-89.8961,32.5411],[-89.9233,32.5289],[-89.9279,32.5155],[-89.9398,32.5137],[-89.9606,32.4914],[-90.0138,32.4801],[-90.0409,32.4495],[-90.0407,32.4417],[-90.0681,32.4386],[-90.0629,32.42],[-90.0754,32.4186],[-90.0663,32.3941],[-90.0815,32.3953],[-90.114,32.3605],[-90.1101,32.3444],[-90.153,32.3208],[-90.1506,32.3117],[-90.161,32.3082],[-90.1514,32.291],[-90.1789,32.2816],[-90.1868,32.2726],[-90.1837,32.2622],[-90.2053,32.2519],[-90.2085,32.2352],[-90.1964,32.2253],[-90.1905,32.2267],[-90.1854,32.2186],[-90.191,32.2097],[-90.1817,32.2016],[-90.1949,32.1879],[-90.2326,32.1736],[-90.2435,32.1767],[-90.2419,32.1551]]]},"properties":{"STATE":"28","COUNTY":"121","NAME":"Rankin County","GEOID":"28121"}},{"type":"Feature","geometry":{"type":"Polygon","coordinates":[[[-91.655,31.2518],[-91.6444,31.2344],[-91.6016,31.2086],[-91.5895,31.1911],[-91.5757,31.2245],[-91.5605,31.2356],[-91.5409,31.2383],[-91.5304,31.2304],[-91.5301,31.2148],[-91.5073,31.226],[-91.487,31.2275],[-91.4788,31.239],[-91.4773,31.2599],[-91.4974,31.2764],[-91.4949,31.2843],[-91.4711,31.2856],[-91.4684,31.3196],[-91.424,31.315],[-91.413,31.3239],[-91.3917,31.3248],[-91.3843,31.3354],[-91.3667,31.3359],[-91.3578,31.3429],[-91.3417,31.34],[-91.3309,31.3518],[-91.3063,31.3609],[-91.283,31.3578],[-91.2729,31.3682],[-91.2571,31.3601],[-91.2311,31.3732],[-91.2131,31.3571],[-91.1582,31.3467],[-91.1538,31.6305],[-91.2333,31.6294],[-91.2411,31.6369],[-91.2693,31.6473],[-91.267,31.6639],[-91.3001,31.6722],[-91.2918,31.6914],[-91.3166,31.7453],[-91.3551,31.7416],[-91.3809,31.7325],[-91.3971,31.7114],[-91.4001,31.6882],[-91.3957,31.6442],[-91.401,31.6204],[-91.4296,31.6114],[-91.4743,31.6254],[-91.4945,31.645],[-91.5073,31.6391],[-91.5167,31.6273],[-91.5172,31.6135],[-91.5028,31.5957],[-91.4886,31.5875],[-91.4663,31.5861],[-91.4227,31.5971],[-91.4039,31.5898],[-91.4079,31.5694],[-91.4439,31.5425],[-91.4797,31.5304],[-91.4896,31.5343],[-91.514,31.5321],[-91.5225,31.5221],[-91.5206,31.5132],[-91.5149,31.5101],[-91.5181,31.4835],[-91.5151,31.4492],[-91.5,31.4205],[-91.4721,31.3959],[-91.4725,31.3713],[-91.4789,31.365],[-91.5042,31.365],[-91.516,31.3703],[-91.5323,31.3903],[-91.5406,31.4308],[-91.5485,31.4327],[-91.5652,31.4234],[-91.5763,31.4105],[-91.5783,31.3991],[-91.569,31.3776],[-91.5557,31.3864],[-91.5462,31.3825],[-91.551,31.3636],[-91.549,31.3473],[-91.5087,31.3151],[-91.5121,31.2842],[-91.5186,31.2753],[-91.5642,31.2616],[-91.6413,31.2669],[-91.655,31.2518]]]},"properties":{"STATE":"28","COUNTY":"001","NAME":"Adams County","GEOID":"28001"}},{"type":"Feature","geometry":{"type":"Polygon","coordinates":[[[-88.5446,34.3352],[-88.5434,34.089],[-88.2038,34.0866],[-88.1563,34.4632],[-88.5421,34.4653],[-88.5446,34.3352]]]},"properties":{"STATE":"28","COUNTY":"057","NAME":"Itawamba County","GEOID":"28057"}},{"type":"Feature","geometry":{"type":"Polygon","coordinates":[[[-90.0405,31.3947],[-90.0404,31.2463],[-90.0319,31.2339],[-90.0319,31.1757],[-90.0061,31.1756],[-90.0059,31.1323],[-89.9382,31.1329],[-89.9295,31.1112],[-89.9295,31.0892],[-89.921,31.0893],[-89.9209,31.0747],[-89.8359,31.0749],[-89.8359,31.0021],[-89.654,31.0025],[-89.6542,31.4338],[-89.8242,31.4341],[-89.8233,31.39],[-90.0405,31.3947]]]},"properties":{"STATE":"28","COUNTY":"091","NAME":"Marion County","GEOID":"28091"}},{"type":"Feature","geometry":{"type":"Polygon","coordinates":[[[-88.885,30.9108],[-88.8845,30.7356],[-88.4125,30.7356],[-88.4256,30.9983],[-88.8343,30.998],[-88.8345,30.9103],[-88.885,30.9108]]]},"properties":{"STATE":"28","COUNTY":"039","NAME":"George County","GEOID":"28039"}},{"type":"Feature","geometry":{"type":"Polygon","coordinates":[[[-89.3529,34.861],[-89.3527,34.8444],[-89.2992,34.8444],[-89.2983,34.5829],[-89.2456,34.5832],[-89.2456,34.5976],[-89.0885,34.5982],[-89.0881,34.8153],[-89.0353,34.8153],[-89.035,34.8588],[-89.0176,34.8587],[-89.0171,34.9949],[-89.3527,34.9941],[-89.3529,34.861]]]},"properties":{"STATE":"28","COUNTY":"009","NAME":"Benton County","GEOID":"28009"}},{"type":"Feature","geometry":{"type":"Polygon","coordinates":[[[-89.7304,32.222],[-89.7301,32.0471],[-89.6621,32.0472],[-89.6544,32.0063],[-89.653,31.7807],[-89.3166,31.8021],[-89.3207,31.8743],[-89.3227,32.2235],[-89.7304,32.222]]]},"properties":{"STATE":"28","COUNTY":"129","NAME":"Smith County","GEOID":"28129"}},{"type":"Feature","geometry":{"type":"Polygon","coordinates":[[[-89.8523,30.6629],[-89.8333,30.6575],[-89.8219,30.644],[-89.8181,30.634],[-89.8233,30.6082],[-89.8139,30.6077],[-89.8198,30.5953],[-89.8071,30.5873],[-89.808,30.568],[-89.7897,30.5666],[-89.8039,30.5606],[-89.7945,30.5566],[-89.7917,30.5515],[-89.7953,30.5466],[-89.7796,30.5443],[-89.7681,30.515],[-89.7606,30.5158],[-89.7581,30.5054],[-89.7246,30.4919],[-89.7159,30.4778],[-89.7102,30.4783],[-89.7018,30.4651],[-89.6898,30.4593],[-89.647,30.4589],[-89.6471,30.5027],[-89.5957,30.5025],[-89.5875,30.5171],[-89.5445,30.5169],[-89.5442,30.6484],[-89.3414,30.6477],[-89.3407,31.001],[-89.3489,31.0104],[-89.4248,31.0101],[-89.4253,30.9825],[-89.476,30.9829],[-89.4759,31.0014],[-89.5014,31.0015],[-89.5013,31.016],[-89.552,31.016],[-89.5519,31.0019],[-89.7355,30.9997],[-89.7277,30.9933],[-89.7305,30.9797],[-89.7371,30.9761],[-89.7271,30.9674],[-89.7357,30.9666],[-89.7563,30.9435],[-89.7444,30.9206],[-89.7501,30.9129],[-89.7642,30.9119],[-89.757,30.8989],[-89.7731,30.8983],[-89.77,30.8823],[-89.7771,30.8811],[-89.7792,30.8752],[-89.768,30.8639],[-89.7726,30.8537],[-89.7841,30.8553],[-89.7802,30.8462],[-89.7875,30.8441],[-89.7908,30.8321],[-89.7812,30.8201],[-89.7859,30.816],[-89.7987,30.8209],[-89.8041,30.8032],[-89.8115,30.798],[-89.8051,30.7906],[-89.8121,30.7884],[-89.8192,30.7952],[-89.8315,30.7676],[-89.8261,30.7423],[-89.8161,30.7394],[-89.8369,30.7347],[-89.8363,30.7272],[-89.8281,30.725],[-89.8301,30.7163],[-89.8363,30.7162],[-89.8466,30.7062],[-89.8381,30.704],[-89.8355,30.6912],[-89.8523,30.6629]]]},"properties":{"STATE":"28","COUNTY":"109","NAME":"Pearl River County","GEOID":"28109"}},{"type":"Feature","geometry":{"type":"Polygon","coordinates":[[[-89.1456,31.2236],[-89.1462,31.0004],[-89.1382,31.0002],[-89.138,30.9099],[-88.8345,30.9103],[-88.8343,30.998],[-88.8409,30.9984],[-88.8417,31.4337],[-89.1461,31.4341],[-89.1456,31.2236]]]},"properties":{"STATE":"28","COUNTY":"111","NAME":"Perry County","GEOID":"28111"}},{"type":"Feature","geometry":{"type":"Polygon","coordinates":[[[-90.961,34.1305],[-90.9566,34.1201],[-90.6595,34.1189],[-90.6604,33.9876],[-90.451,33.9857],[-90.4506,34.2624],[-90.399,34.2615],[-90.3975,34.4226],[-90.5682,34.5246],[-90.5747,34.5218],[-90.5933,34.4879],[-90.5777,34.4324],[-90.5843,34.4122],[-90.6096,34.3916],[-90.6452,34.3868],[-90.6582,34.3761],[-90.6632,34.3522],[-90.6575,34.3222],[-90.6614,34.3154],[-90.6781,34.3131],[-90.6931,34.3226],[-90.6827,34.3668],[-90.7119,34.3607],[-90.7597,34.3665],[-90.7698,34.3569],[-90.768,34.3462],[-90.7359,34.3107],[-90.738,34.2893],[-90.7529,34.2746],[-90.7656,34.2695],[-90.8258,34.2799],[-90.8336,34.2741],[-90.8405,34.2345],[-90.8381,34.22],[-90.8459,34.2076],[-90.8791,34.2154],[-90.8966,34.2258],[-90.9101,34.2456],[-90.9232,34.2465],[-90.9364,34.2367],[-90.9352,34.219],[-90.9255,34.207],[-90.9118,34.1939],[-90.8879,34.182],[-90.8544,34.1868],[-90.8175,34.1832],[-90.8091,34.177],[-90.8076,34.1618],[-90.8226,34.1441],[-90.8361,34.1379],[-90.8535,34.1375],[-90.91,34.1655],[-90.961,34.1305]]]},"properties":{"STATE":"28","COUNTY":"027","NAME":"Coahoma County","GEOID":"28027"}},{"type":"Feature","geometry":{"type":"MultiPolygon","coordinates":[[[[-89.3414,30.5941],[-89.3409,30.3729],[-89.3151,30.3754],[-89.2925,30.3656],[-89.2798,30.3498],[-89.2816,30.332],[-89.2878,30.3332],[-89.2918,30.3281],[-89.2914,30.3033],[-89.1868,30.3312],[-89.0832,30.3681],[-88.9712,30.3908],[-88.8848,30.392],[-88.8805,30.3866],[-88.8188,30.3606],[-88.8133,30.3791],[-88.8618,30.4156],[-88.8831,30.4188],[-88.8845,30.6773],[-89.2401,30.6772],[-89.2401,30.6476],[-89.3414,30.6477],[-89.3414,30.5941]]],[[[-88.9886,30.2163],[-88.9934,30.2081],[-88.9708,30.2009],[-88.947,30.206],[-88.8936,30.2245],[-88.8769,30.2358],[-88.8722,30.245],[-88.8817,30.2491],[-88.9363,30.2214],[-88.9886,30.2163]]],[[[-89.1598,30.2389],[-89.1705,30.2286],[-89.1277,30.2194],[-89.1087,30.206],[-89.0742,30.2122],[-89.0623,30.2296],[-89.0564,30.2491],[-89.0706,30.2584],[-89.0849,30.2379],[-89.1598,30.2389]]]]},"properties":{"STATE":"28","COUNTY":"047","NAME":"Harrison County","GEOID":"28047"}},{"type":"Feature","geometry":{"type":"Polygon","coordinates":[[[-90.2479,32.0315],[-90.2392,32.0195],[-90.2209,32.0189],[-90.2327,32.0083],[-90.2243,31.9966],[-90.2061,31.988],[-90.1928,31.9531],[-90.1945,31.9396],[-90.1787,31.9427],[-90.1683,31.9305],[-90.1703,31.9045],[-90.1457,31.8929],[-90.1383,31.8753],[-90.1365,31.85],[-90.1592,31.8447],[-90.136,31.819],[-90.1507,31.7999],[-90.1408,31.7894],[-90.111,31.7893],[-90.1075,31.7777],[-90.1288,31.7659],[-90.1226,31.7527],[-89.653,31.7807],[-89.6544,32.0063],[-89.6621,32.0472],[-90.2303,32.0497],[-90.2479,32.0315]]]},"properties":{"STATE":"28","COUNTY":"127","NAME":"Simpson County","GEOID":"28127"}},{"type":"Feature","geometry":{"type":"Polygon","coordinates":[[[-89.3413,30.786],[-89.3414,30.6477],[-89.2401,30.6476],[-89.2401,30.6772],[-88.8845,30.6773],[-88.885,30.9108],[-89.3408,30.9099],[-89.3413,30.786]]]},"properties":{"STATE":"28","COUNTY":"131","NAME":"Stone County","GEOID":"28131"}},{"type":"Feature","geometry":{"type":"Polygon","coordinates":[[[-89.8964,32.9326],[-89.9659,32.8796],[-89.73,32.8851],[-89.7302,32.9299],[-89.3192,32.9317],[-89.3164,33.2856],[-89.7015,33.2854],[-89.7494,33.2145],[-89.7504,33.2055],[-89.7767,33.1938],[-89.7743,33.1769],[-89.7833,33.1624],[-89.7939,33.1595],[-89.7938,33.1307],[-89.8063,33.1129],[-89.8249,33.1102],[-89.8193,33.1001],[-89.8271,33.089],[-89.8242,33.0641],[-89.8334,33.0624],[-89.8364,33.04],[-89.8736,33.001],[-89.8899,32.9706],[-89.8964,32.9326]]]},"properties":{"STATE":"28","COUNTY":"007","NAME":"Attala County","GEOID":"28007"}},{"type":"Feature","geometry":{"type":"Polygon","coordinates":[[[-91.2329,33.5611],[-91.2343,33.5561],[-91.2182,33.5294],[-90.7635,33.5294],[-90.7635,33.6162],[-90.6586,33.6163],[-90.6595,34.1189],[-90.9566,34.1201],[-90.9477,34.1096],[-90.9213,34.0935],[-90.8932,34.0978],[-90.8828,34.0966],[-90.8743,34.0895],[-90.8711,34.0812],[-90.8881,34.0545],[-90.8881,34.0326],[-90.8926,34.027],[-90.9262,34.0216],[-90.9591,34.0268],[-90.9881,34.019],[-90.9756,33.9952],[-90.9619,33.9804],[-90.9676,33.9636],[-90.98,33.9602],[-91.0006,33.967],[-91.0169,34.0001],[-91.0509,33.9934],[-91.0688,34.0064],[-91.0854,34.0075],[-91.0905,33.9914],[-91.086,33.9574],[-91.0191,33.9421],[-91.0122,33.9371],[-91.0105,33.9287],[-91.0314,33.9014],[-91.0659,33.8763],[-91.073,33.8662],[-91.0664,33.838],[-91.0491,33.816],[-91.0085,33.8028],[-90.9934,33.7942],[-90.9887,33.7835],[-90.9952,33.7725],[-91.0228,33.7643],[-91.0527,33.7779],[-91.109,33.772],[-91.1294,33.7837],[-91.1363,33.781],[-91.1436,33.7702],[-91.1487,33.7321],[-91.1286,33.7111],[-91.1169,33.7053],[-91.0592,33.7145],[-91.0439,33.7033],[-91.0303,33.6833],[-91.0347,33.6729],[-91.0875,33.6574],[-91.1247,33.6716],[-91.1604,33.7066],[-91.2204,33.6965],[-91.2292,33.6863],[-91.2304,33.6756],[-91.222,33.6627],[-91.1709,33.6492],[-91.1369,33.6262],[-91.1287,33.6092],[-91.1323,33.5955],[-91.1661,33.5697],[-91.2216,33.5686],[-91.2329,33.5611]]]},"properties":{"STATE":"28","COUNTY":"011","NAME":"Bolivar County","GEOID":"28011"}},{"type":"Feature","geometry":{"type":"Polygon","coordinates":[[[-89.5071,33.7218],[-89.5065,33.4598],[-89.3811,33.4603],[-89.3629,33.4728],[-89.3403,33.4695],[-89.3198,33.4963],[-89.2717,33.5112],[-89.2611,33.5186],[-89.2421,33.5164],[-89.2205,33.5273],[-89.2084,33.5252],[-89.181,33.5328],[-89.0884,33.5332],[-89.0883,33.562],[-89.0186,33.5621],[-89.0185,33.6354],[-89.036,33.6336],[-89.0345,33.7394],[-89.1918,33.7386],[-89.1919,33.7222],[-89.5071,33.7218]]]},"properties":{"STATE":"28","COUNTY":"155","NAME":"Webster County","GEOID":"28155"}},{"type":"Feature","geometry":{"type":"Polygon","coordinates":[[[-88.6716,33.5066],[-88.6706,33.2869],[-88.3044,33.2883],[-88.2489,33.745],[-88.3252,33.7457],[-88.3261,33.7258],[-88.3703,33.6859],[-88.394,33.6956],[-88.4068,33.6733],[-88.4455,33.6714],[-88.4569,33.6635],[-88.4964,33.6641],[-88.5139,33.6505],[-88.4985,33.6416],[-88.5062,33.6143],[-88.4752,33.6035],[-88.4946,33.5792],[-88.4899,33.5634],[-88.497,33.565],[-88.4925,33.5432],[-88.472,33.5256],[-88.4803,33.5227],[-88.523,33.5509],[-88.5312,33.5375],[-88.5528,33.5222],[-88.5603,33.5257],[-88.6094,33.5069],[-88.6716,33.5066]]]},"properties":{"STATE":"28","COUNTY":"087","NAME":"Lowndes County","GEOID":"28087"}},{"type":"Feature","geometry":{"type":"Polygon","coordinates":[[[-88.7202,33.8984],[-88.7196,33.6803],[-88.4917,33.6773],[-88.5131,33.6609],[-88.5139,33.6505],[-88.4964,33.6641],[-88.4569,33.6635],[-88.4455,33.6714],[-88.4068,33.6733],[-88.394,33.6956],[-88.3703,33.6859],[-88.3261,33.7258],[-88.3252,33.7457],[-88.2489,33.745],[-88.2038,34.0866],[-88.7187,34.0893],[-88.7202,33.8984]]]},"properties":{"STATE":"28","COUNTY":"095","NAME":"Monroe County","GEOID":"28095"}},{"type":"Feature","geometry":{"type":"Polygon","coordinates":[[[-90.2604,31.2268],[-90.2596,31.0007],[-89.8359,31.0021],[-89.8359,31.0749],[-89.9209,31.0747],[-89.921,31.0893],[-89.9295,31.0892],[-89.9295,31.1112],[-89.9382,31.1329],[-90.0059,31.1323],[-90.0061,31.1756],[-90.0319,31.1757],[-90.0319,31.2339],[-90.0404,31.2463],[-90.0405,31.336],[-90.053,31.3289],[-90.0824,31.3288],[-90.1087,31.3509],[-90.2604,31.3503],[-90.2604,31.2268]]]},"properties":{"STATE":"28","COUNTY":"147","NAME":"Walthall County","GEOID":"28147"}},{"type":"Feature","geometry":{"type":"Polygon","coordinates":[[[-89.7869,33.6767],[-89.7852,33.4163],[-89.7158,33.4168],[-89.7156,33.4021],[-89.6463,33.4025],[-89.6453,33.2855],[-89.4538,33.2859],[-89.4541,33.4332],[-89.4463,33.4398],[-89.4222,33.4295],[-89.4023,33.4528],[-89.3811,33.4603],[-89.5065,33.4598],[-89.5069,33.6776],[-89.7869,33.6767]]]},"properties":{"STATE":"28","COUNTY":"097","NAME":"Montgomery County","GEOID":"28097"}},{"type":"Feature","geometry":{"type":"Polygon","coordinates":[[[-90.1748,33.417],[-90.1746,33.3334],[-89.7494,33.2145],[-89.7015,33.2854],[-89.6453,33.2855],[-89.6463,33.4025],[-89.7156,33.4021],[-89.7158,33.4168],[-89.7852,33.4163],[-89.7869,33.6767],[-90.1278,33.677],[-90.1203,33.6643],[-90.103,33.6607],[-90.1089,33.6295],[-90.1079,33.6063],[-90.1303,33.6039],[-90.102,33.6038],[-90.1014,33.4589],[-90.1376,33.4591],[-90.1378,33.4165],[-90.1748,33.417]]]},"properties":{"STATE":"28","COUNTY":"015","NAME":"Carroll County","GEOID":"28015"}},{"type":"Feature","geometry":{"type":"Polygon","coordinates":[[[-90.4508,34.2233],[-90.451,34.0729],[-90.1357,34.0729],[-90.1345,34.2656],[-90.1941,34.3014],[-90.1985,34.5111],[-90.3043,34.5096],[-90.3019,34.4245],[-90.3995,34.4238],[-90.399,34.2615],[-90.4506,34.2624],[-90.4508,34.2233]]]},"properties":{"STATE":"28","COUNTY":"119","NAME":"Quitman County","GEOID":"28119"}}]}