{"type":"FeatureCollection","features":[{"type":"Feature","geometry":{"type":"MultiPolygon","coordinates":[[[[-94.043,32.693],[-94.042,31.992],[-94.019,31.991],[-93.972,31.92],[-93.928,31.891],[-93.905,31.891],[-93.875,31.822],[-93.823,31.774],[-93.831,31.746],[-93.802,31.693],[-93.826,31.667],[-93.817,31.623],[-93.838,31.607],[-93.835,31.586],[-93.798,31.534],[-93.727,31.512],[-93.749,31.469],[-93.701,31.438],[-93.705,31.411],[-93.672,31.393],[-93.664,31.36],[-93.687,31.305],[-93.643,31.27],[-93.62,31.271],[-93.6,31.176],[-93.589,31.166],[-93.533,31.184],[-93.551,31.091],[-93.526,31.071],[-93.532,31.055],[-93.516,31.03],[-93.54,31.008],[-93.566,31.005],[-93.572,30.988],[-93.526,30.939],[-93.568,30.888],[-93.554,30.835],[-93.562,30.808],[-93.584,30.797],[-93.593,30.764],[-93.619,30.742],[-93.61,30.723],[-93.63,30.68],[-93.683,30.641],[-93.681,30.596],[-93.728,30.574],[-93.729,30.545],[-93.74,30.54],[-93.714,30.519],[-93.698,30.441],[-93.758,30.39],[-93.766,30.333],[-93.707,30.281],[-93.705,30.243],[-93.721,30.21],[-93.688,30.141],[-93.734,30.086],[-93.699,30.059],[-93.721,30.053],[-93.741,30.022],[-93.787,29.991],[-93.838,29.883],[-93.928,29.81],[-93.927,29.79],[-93.894,29.767],[-93.892,29.745],[-93.87,29.735],[-93.838,29.691],[-93.766,29.73],[-93.684,29.747],[-93.475,29.769],[-93.346,29.763],[-93.227,29.778],[-93.031,29.736],[-92.741,29.622],[-92.615,29.586],[-92.323,29.531],[-92.28,29.533],[-92.159,29.582],[-92.042,29.587],[-92.065,29.604],[-92.017,29.616],[-92.035,29.632],[-92.108,29.614],[-92.137,29.667],[-92.103,29.693],[-92.169,29.7],[-92.2,29.726],[-92.208,29.744],[-92.2,29.753],[-92.171,29.74],[-92.175,29.759],[-92.137,29.767],[-92.116,29.74],[-91.978,29.8],[-91.983,29.825],[-91.971,29.834],[-91.938,29.817],[-91.889,29.836],[-91.831,29.829],[-91.829,29.778],[-91.852,29.792],[-91.879,29.757],[-91.858,29.744],[-91.859,29.728],[-91.881,29.713],[-91.854,29.708],[-91.752,29.748],[-91.622,29.735],[-91.627,29.662],[-91.649,29.634],[-91.554,29.633],[-91.526,29.552],[-91.531,29.532],[-91.496,29.539],[-91.486,29.499],[-91.461,29.47],[-91.358,29.513],[-91.32,29.478],[-91.364,29.435],[-91.364,29.421],[-91.33,29.427],[-91.334,29.392],[-91.302,29.413],[-91.276,29.409],[-91.257,29.438],[-91.217,29.433],[-91.218,29.396],[-91.133,29.341],[-91.124,29.32],[-91.12,29.3],[-91.132,29.286],[-91.122,29.251],[-91.154,29.255],[-91.172,29.267],[-91.162,29.318],[-91.172,29.325],[-91.196,29.306],[-91.238,29.351],[-91.237,29.371],[-91.265,29.361],[-91.292,29.311],[-91.333,29.306],[-91.303,29.266],[-91.219,29.226],[-91.129,29.216],[-91.094,29.188],[-91.0,29.169],[-90.961,29.181],[-90.86,29.095],[-90.852,29.074],[-90.868,29.056],[-90.841,29.046],[-90.813,29.042],[-90.788,29.108],[-90.773,29.103],[-90.736,29.135],[-90.723,29.136],[-90.711,29.116],[-90.694,29.125],[-90.685,29.166],[-90.647,29.169],[-90.633,29.214],[-90.612,29.215],[-90.605,29.238],[-90.575,29.227],[-90.562,29.235],[-90.59,29.253],[-90.598,29.303],[-90.58,29.312],[-90.554,29.285],[-90.527,29.304],[-90.479,29.292],[-90.452,29.322],[-90.458,29.336],[-90.447,29.348],[-90.432,29.347],[-90.394,29.299],[-90.403,29.234],[-90.373,29.265],[-90.377,29.289],[-90.349,29.305],[-90.344,29.289],[-90.304,29.266],[-90.273,29.199],[-90.259,29.2],[-90.264,29.181],[-90.285,29.178],[-90.278,29.143],[-90.234,29.129],[-90.233,29.111],[-90.25,29.108],[-90.246,29.093],[-90.224,29.085],[-90.059,29.184],[-89.953,29.256],[-89.948,29.271],[-89.843,29.319],[-89.64,29.291],[-89.607,29.252],[-89.483,29.215],[-89.429,29.145],[-89.391,29.124],[-89.351,29.13],[-89.332,29.149],[-89.329,29.191],[-89.319,29.202],[-89.295,29.199],[-89.279,29.138],[-89.312,29.118],[-89.303,29.098],[-89.31,29.071],[-89.344,29.053],[-89.42,28.93],[-89.401,28.934],[-89.293,29.041],[-89.259,29.058],[-89.252,29.083],[-89.218,29.056],[-89.219,29.023],[-89.143,28.992],[-89.147,29.052],[-89.111,29.081],[-89.106,29.111],[-89.086,29.112],[-89.067,29.091],[-89.04,29.135],[-89.097,29.139],[-89.11,29.153],[-89.033,29.181],[-89.014,29.167],[-89.004,29.18],[-89.026,29.215],[-89.091,29.191],[-89.113,29.202],[-89.115,29.253],[-89.14,29.291],[-89.165,29.303],[-89.18,29.34],[-89.201,29.348],[-89.224,29.314],[-89.241,29.31],[-89.312,29.388],[-89.32,29.363],[-89.339,29.355],[-89.348,29.365],[-89.34,29.381],[-89.457,29.393],[-89.477,29.411],[-89.509,29.386],[-89.532,29.426],[-89.528,29.455],[-89.572,29.475],[-89.57,29.494],[-89.608,29.49],[-89.64,29.504],[-89.657,29.532],[-89.681,29.534],[-89.684,29.551],[-89.684,29.563],[-89.642,29.576],[-89.684,29.603],[-89.684,29.625],[-89.603,29.582],[-89.602,29.61],[-89.666,29.643],[-89.535,29.649],[-89.487,29.62],[-89.511,29.657],[-89.534,29.67],[-89.52,29.692],[-89.525,29.727],[-89.487,29.726],[-89.468,29.699],[-89.466,29.652],[-89.434,29.656],[-89.424,29.698],[-89.388,29.68],[-89.43,29.713],[-89.428,29.742],[-89.395,29.785],[-89.271,29.756],[-89.285,29.77],[-89.277,29.808],[-89.332,29.791],[-89.346,29.82],[-89.384,29.839],[-89.27,29.86],[-89.236,29.877],[-89.241,29.89],[-89.322,29.887],[-89.28,29.925],[-89.231,29.925],[-89.218,29.973],[-89.25,29.976],[-89.251,30.002],[-89.273,29.994],[-89.315,29.923],[-89.368,29.911],[-89.379,29.92],[-89.379,29.964],[-89.433,29.979],[-89.433,29.991],[-89.423,30.015],[-89.372,30.037],[-89.372,30.055],[-89.418,30.05],[-89.482,30.079],[-89.502,30.034],[-89.581,29.995],[-89.575,29.959],[-89.598,29.881],[-89.661,29.863],[-89.711,29.879],[-89.742,29.908],[-89.743,29.936],[-89.713,29.946],[-89.719,29.954],[-89.818,29.934],[-89.838,29.946],[-89.852,29.978],[-89.858,30.004],[-89.819,30.043],[-89.716,30.026],[-89.731,30.058],[-89.684,30.076],[-89.678,30.108],[-89.641,30.139],[-89.618,30.156],[-89.587,30.151],[-89.525,30.181],[-89.539,30.196],[-89.574,30.182],[-89.616,30.223],[-89.614,30.245],[-89.643,30.288],[-89.626,30.314],[-89.63,30.339],[-89.657,30.357],[-89.684,30.406],[-89.683,30.452],[-89.768,30.515],[-89.78,30.544],[-89.795,30.547],[-89.804,30.561],[-89.79,30.567],[-89.808,30.568],[-89.807,30.587],[-89.82,30.595],[-89.822,30.644],[-89.852,30.661],[-89.835,30.691],[-89.847,30.706],[-89.828,30.725],[-89.837,30.735],[-89.816,30.739],[-89.832,30.768],[-89.819,30.795],[-89.805,30.791],[-89.799,30.821],[-89.781,30.82],[-89.79,30.838],[-89.768,30.864],[-89.779,30.875],[-89.773,30.898],[-89.759,30.897],[-89.764,30.912],[-89.745,30.919],[-89.756,30.943],[-89.727,30.967],[-89.737,30.976],[-89.73,31.004],[-91.637,30.999],[-91.578,31.024],[-91.56,31.054],[-91.626,31.117],[-91.589,31.189],[-91.654,31.256],[-91.638,31.268],[-91.564,31.262],[-91.516,31.278],[-91.509,31.315],[-91.549,31.347],[-91.546,31.382],[-91.569,31.378],[-91.576,31.41],[-91.542,31.432],[-91.522,31.375],[-91.479,31.365],[-91.472,31.396],[-91.513,31.444],[-91.523,31.522],[-91.444,31.542],[-91.405,31.576],[-91.404,31.59],[-91.423,31.597],[-91.489,31.587],[-91.517,31.612],[-91.515,31.63],[-91.498,31.645],[-91.437,31.613],[-91.401,31.62],[-91.4,31.698],[-91.381,31.732],[-91.276,31.746],[-91.26,31.761],[-91.274,31.771],[-91.365,31.77],[-91.343,31.847],[-91.293,31.86],[-91.282,31.815],[-91.256,31.813],[-91.245,31.831],[-91.268,31.863],[-91.181,31.918],[-91.193,31.936],[-91.185,31.966],[-91.164,31.983],[-91.104,31.99],[-91.076,32.017],[-91.088,32.034],[-91.151,32.049],[-91.162,32.068],[-91.139,32.082],[-91.104,32.05],[-91.08,32.048],[-91.082,32.078],[-91.035,32.101],[-91.006,32.157],[-91.058,32.177],[-91.053,32.124],[-91.163,32.133],[-91.175,32.155],[-91.164,32.197],[-91.134,32.213],[-91.109,32.208],[-91.084,32.226],[-91.061,32.219],[-91.039,32.242],[-91.003,32.223],[-91.004,32.201],[-90.991,32.199],[-90.969,32.253],[-90.983,32.27],[-90.979,32.294],[-90.964,32.297],[-90.951,32.283],[-90.934,32.29],[-90.876,32.358],[-90.876,32.372],[-90.889,32.373],[-90.912,32.339],[-90.994,32.354],[-91.005,32.368],[-90.994,32.404],[-90.966,32.421],[-90.97,32.439],[-90.994,32.451],[-91.03,32.434],[-91.053,32.438],[-91.116,32.483],[-91.098,32.545],[-91.038,32.49],[-91.004,32.482],[-90.987,32.496],[-91.077,32.559],[-91.01,32.602],[-91.003,32.623],[-91.014,32.64],[-91.038,32.636],[-91.05,32.607],[-91.12,32.585],[-91.151,32.616],[-91.15,32.644],[-91.055,32.719],[-91.165,32.751],[-91.162,32.812],[-91.145,32.843],[-91.106,32.858],[-91.064,32.901],[-91.065,32.926],[-91.097,32.986],[-91.136,32.98],[-91.134,32.918],[-91.17,32.899],[-91.2,32.909],[-91.214,32.93],[-91.166,33.004],[-94.043,33.019],[-94.043,32.693]]],[[[-88.881,30.053],[-88.854,30.012],[-88.835,29.923],[-88.847,29.837],[-88.874,29.775],[-88.875,29.76],[-88.863,29.757],[-88.827,29.847],[-88.817,29.934],[-88.841,30.013],[-88.881,30.053]]],[[[-89.342,30.059],[-89.337,30.04],[-89.276,30.032],[-89.26,30.049],[-89.239,30.041],[-89.229,30.0],[-89.202,30.001],[-89.212,30.02],[-89.203,30.035],[-89.173,30.043],[-89.186,30.064],[-89.221,30.071],[-89.227,30.095],[-89.183,30.149],[-89.19,30.162],[-89.342,30.059]]],[[[-89.442,30.144],[-89.453,30.139],[-89.439,30.128],[-89.418,30.144],[-89.425,30.153],[-89.442,30.144]]],[[[-89.627,29.535],[-89.6,29.508],[-89.565,29.544],[-89.627,29.535]]],[[[-90.376,29.109],[-90.335,29.064],[-90.304,29.075],[-90.343,29.128],[-90.376,29.109]]],[[[-90.558,29.094],[-90.537,29.074],[-90.488,29.059],[-90.419,29.065],[-90.558,29.094]]],[[[-90.751,29.056],[-90.765,29.045],[-90.652,29.058],[-90.662,29.072],[-90.751,29.056]]],[[[-92.018,29.591],[-92.03,29.573],[-92.015,29.561],[-91.884,29.502],[-91.857,29.5],[-91.846,29.479],[-91.822,29.474],[-91.804,29.488],[-91.768,29.49],[-91.765,29.525],[-91.713,29.556],[-91.711,29.569],[-91.732,29.563],[-91.733,29.581],[-91.765,29.575],[-91.785,29.594],[-91.803,29.589],[-91.848,29.627],[-91.901,29.634],[-91.928,29.632],[-91.94,29.61],[-91.983,29.614],[-92.018,29.591]]]]},"properties":{"STATE":"22","NAME":"Louisiana","GEOID":"22"}},{"type":"Feature","geometry":{"type":"Polygon","coordinates":[[[-106.645,31.899],[-106.629,31.884],[-106.636,31.866],[-106.602,31.844],[-106.603,31.825],[-106.547,31.807],[-106.49,31.748],[-106.452,31.765],[-106.381,31.732],[-106.304,31.62],[-106.281,31.562],[-106.246,31.541],[-106.206,31.466],[-106.08,31.399],[-106.005,31.392],[-105.954,31.365],[-105.938,31.319],[-105.909,31.313],[-105.895,31.291],[-105.869,31.289],[-105.783,31.198],[-105.773,31.167],[-105.743,31.165],[-105.603,31.083],[-105.557,30.99],[-105.533,30.985],[-105.4,30.889],[-105.394,30.853],[-105.361,30.847],[-105.315,30.817],[-105.287,30.822],[-105.261,30.798],[-105.219,30.802],[-105.213,30.785],[-105.195,30.792],[-105.158,30.754],[-105.114,30.746],[-105.062,30.686],[-105.007,30.686],[-104.986,30.661],[-104.972,30.61],[-104.925,30.605],[-104.877,30.511],[-104.852,30.419],[-104.86,30.39],[-104.818,30.366],[-104.81,30.335],[-104.762,30.301],[-104.752,30.264],[-104.713,30.238],[-104.687,30.179],[-104.695,30.132],[-104.685,30.086],[-104.707,30.051],[-104.68,29.975],[-104.68,29.925],[-104.566,29.77],[-104.54,29.676],[-104.508,29.64],[-104.338,29.52],[-104.318,29.528],[-104.236,29.497],[-104.167,29.399],[-104.106,29.373],[-104.038,29.32],[-103.975,29.296],[-103.791,29.263],[-103.779,29.254],[-103.781,29.231],[-103.757,29.231],[-103.714,29.185],[-103.646,29.159],[-103.611,29.166],[-103.592,29.15],[-103.558,29.155],[-103.428,29.042],[-103.362,29.019],[-103.335,29.04],[-103.336,29.02],[-103.309,29.018],[-103.312,29.008],[-103.286,29.0],[-103.278,28.979],[-103.228,28.992],[-103.164,28.972],[-103.115,28.985],[-103.1,29.058],[-103.015,29.126],[-102.995,29.18],[-102.951,29.177],[-102.933,29.194],[-102.918,29.191],[-102.912,29.219],[-102.89,29.209],[-102.867,29.225],[-102.871,29.242],[-102.906,29.26],[-102.888,29.292],[-102.884,29.348],[-102.843,29.358],[-102.825,29.4],[-102.833,29.433],[-102.807,29.494],[-102.809,29.522],[-102.771,29.549],[-102.768,29.595],[-102.74,29.599],[-102.742,29.632],[-102.693,29.677],[-102.698,29.696],[-102.671,29.742],[-102.63,29.734],[-102.576,29.755],[-102.569,29.768],[-102.539,29.752],[-102.513,29.766],[-102.508,29.783],[-102.387,29.767],[-102.365,29.845],[-102.315,29.88],[-102.232,29.848],[-102.186,29.848],[-102.16,29.814],[-102.116,29.792],[-102.05,29.785],[-102.039,29.803],[-101.975,29.81],[-101.93,29.789],[-101.853,29.802],[-101.707,29.763],[-101.662,29.771],[-101.646,29.754],[-101.626,29.771],[-101.583,29.771],[-101.547,29.797],[-101.523,29.76],[-101.475,29.781],[-101.447,29.755],[-101.415,29.757],[-101.362,29.658],[-101.311,29.648],[-101.306,29.578],[-101.293,29.572],[-101.278,29.593],[-101.269,29.63],[-101.252,29.626],[-101.244,29.569],[-101.261,29.537],[-101.255,29.52],[-101.174,29.515],[-101.144,29.473],[-101.06,29.459],[-101.011,29.369],[-100.949,29.347],[-100.887,29.308],[-100.876,29.28],[-100.798,29.247],[-100.796,29.228],[-100.767,29.195],[-100.773,29.168],[-100.675,29.1],[-100.641,28.914],[-100.632,28.903],[-100.602,28.902],[-100.599,28.876],[-100.573,28.848],[-100.575,28.829],[-100.547,28.826],[-100.536,28.806],[-100.533,28.763],[-100.508,28.741],[-100.5,28.662],[-100.447,28.642],[-100.447,28.609],[-100.398,28.585],[-100.411,28.552],[-100.389,28.516],[-100.334,28.499],[-100.368,28.477],[-100.338,28.443],[-100.344,28.39],[-100.286,28.312],[-100.293,28.278],[-100.252,28.236],[-100.22,28.232],[-100.208,28.19],[-100.083,28.144],[-100.053,28.085],[-100.018,28.065],[-99.991,27.995],[-99.932,27.981],[-99.937,27.941],[-99.9,27.912],[-99.894,27.893],[-99.904,27.875],[-99.877,27.842],[-99.878,27.799],[-99.851,27.794],[-99.842,27.766],[-99.813,27.774],[-99.796,27.736],[-99.771,27.732],[-99.712,27.658],[-99.669,27.66],[-99.658,27.65],[-99.666,27.636],[-99.639,27.627],[-99.596,27.64],[-99.578,27.619],[-99.585,27.604],[-99.555,27.614],[-99.512,27.568],[-99.528,27.499],[-99.498,27.5],[-99.48,27.482],[-99.495,27.452],[-99.488,27.412],[-99.505,27.338],[-99.538,27.316],[-99.495,27.304],[-99.488,27.261],[-99.463,27.268],[-99.442,27.25],[-99.445,27.223],[-99.426,27.176],[-99.442,27.107],[-99.429,27.091],[-99.452,27.063],[-99.447,27.023],[-99.432,27.011],[-99.415,27.017],[-99.377,26.978],[-99.394,26.961],[-99.379,26.934],[-99.325,26.916],[-99.329,26.88],[-99.317,26.866],[-99.295,26.865],[-99.269,26.843],[-99.242,26.788],[-99.24,26.746],[-99.209,26.725],[-99.201,26.656],[-99.178,26.621],[-99.171,26.54],[-99.128,26.525],[-99.105,26.5],[-99.092,26.477],[-99.114,26.434],[-99.085,26.399],[-99.032,26.412],[-99.008,26.395],[-98.968,26.398],[-98.942,26.376],[-98.921,26.381],[-98.891,26.358],[-98.807,26.369],[-98.79,26.332],[-98.749,26.322],[-98.745,26.303],[-98.711,26.29],[-98.669,26.236],[-98.599,26.258],[-98.576,26.235],[-98.544,26.234],[-98.501,26.214],[-98.451,26.22],[-98.443,26.199],[-98.404,26.183],[-98.387,26.158],[-98.355,26.153],[-98.337,26.166],[-98.324,26.121],[-98.303,26.11],[-98.296,26.12],[-98.266,26.12],[-98.277,26.099],[-98.265,26.086],[-98.249,26.073],[-98.221,26.076],[-98.197,26.056],[-98.178,26.075],[-98.147,26.049],[-98.08,26.071],[-98.07,26.048],[-98.039,26.041],[-98.029,26.066],[-97.981,26.067],[-97.967,26.052],[-97.887,26.066],[-97.861,26.053],[-97.801,26.06],[-97.79,26.042],[-97.759,26.032],[-97.649,26.021],[-97.598,25.958],[-97.583,25.955],[-97.583,25.938],[-97.546,25.934],[-97.522,25.886],[-97.455,25.879],[-97.445,25.85],[-97.395,25.837],[-97.365,25.85],[-97.36,25.869],[-97.374,25.907],[-97.35,25.925],[-97.277,25.935],[-97.277,25.952],[-97.229,25.959],[-97.178,25.962],[-97.157,25.949],[-97.146,25.971],[-97.152,26.062],[-97.196,26.053],[-97.2,26.077],[-97.271,26.086],[-97.305,26.121],[-97.291,26.133],[-97.307,26.157],[-97.296,26.182],[-97.311,26.236],[-97.288,26.276],[-97.37,26.458],[-97.411,26.474],[-97.417,26.554],[-97.446,26.609],[-97.479,26.807],[-97.466,26.81],[-97.46,26.847],[-97.431,27.161],[-97.442,27.164],[-97.424,27.264],[-97.543,27.229],[-97.639,27.253],[-97.637,27.282],[-97.609,27.285],[-97.502,27.367],[-97.487,27.359],[-97.484,27.339],[-97.503,27.322],[-97.498,27.309],[-97.547,27.291],[-97.532,27.279],[-97.508,27.275],[-97.483,27.298],[-97.405,27.33],[-97.322,27.571],[-97.294,27.594],[-97.297,27.614],[-97.254,27.697],[-97.368,27.742],[-97.393,27.783],[-97.379,27.838],[-97.419,27.823],[-97.472,27.824],[-97.515,27.851],[-97.515,27.87],[-97.493,27.884],[-97.454,27.874],[-97.341,27.883],[-97.325,27.868],[-97.274,27.882],[-97.244,27.869],[-97.22,27.838],[-97.225,27.826],[-97.187,27.824],[-97.129,27.92],[-97.026,28.042],[-97.037,28.073],[-97.025,28.107],[-97.047,28.116],[-97.053,28.092],[-97.1,28.078],[-97.132,28.05],[-97.137,28.028],[-97.217,28.074],[-97.218,28.086],[-97.147,28.142],[-97.037,28.186],[-97.021,28.184],[-97.027,28.148],[-97.008,28.136],[-96.935,28.124],[-96.8,28.224],[-96.787,28.256],[-96.81,28.29],[-96.792,28.312],[-96.79,28.384],[-96.768,28.41],[-96.71,28.407],[-96.705,28.349],[-96.684,28.314],[-96.665,28.31],[-96.621,28.319],[-96.581,28.353],[-96.453,28.419],[-96.42,28.417],[-96.453,28.38],[-96.434,28.364],[-96.441,28.343],[-96.599,28.293],[-96.735,28.191],[-96.791,28.189],[-96.821,28.168],[-96.819,28.143],[-96.854,28.12],[-96.88,28.129],[-96.888,28.104],[-96.928,28.082],[-96.934,28.056],[-97.017,27.946],[-97.082,27.913],[-97.13,27.839],[-97.121,27.799],[-97.151,27.769],[-97.304,27.507],[-97.361,27.352],[-97.4,27.115],[-97.401,26.892],[-97.389,26.8],[-97.306,26.58],[-97.31,26.563],[-97.286,26.537],[-97.252,26.438],[-97.169,26.078],[-97.159,26.083],[-97.197,26.306],[-97.323,26.702],[-97.367,26.886],[-97.379,27.06],[-97.372,27.153],[-97.336,27.318],[-97.257,27.511],[-97.141,27.717],[-97.045,27.834],[-97.003,27.908],[-96.792,28.11],[-96.632,28.223],[-96.443,28.318],[-96.39,28.382],[-96.303,28.442],[-96.22,28.492],[-95.813,28.665],[-95.44,28.859],[-95.382,28.866],[-95.082,29.111],[-94.735,29.326],[-94.739,29.335],[-94.785,29.336],[-94.811,29.353],[-94.822,29.344],[-94.825,29.306],[-94.879,29.286],[-95.004,29.184],[-95.145,29.091],[-95.165,29.114],[-95.159,29.189],[-95.113,29.196],[-95.099,29.174],[-94.953,29.29],[-94.922,29.282],[-94.894,29.308],[-94.892,29.433],[-94.952,29.466],[-94.935,29.481],[-94.923,29.477],[-94.909,29.497],[-94.982,29.511],[-95.018,29.555],[-94.984,29.602],[-95.016,29.639],[-94.986,29.68],[-94.971,29.661],[-94.957,29.663],[-94.962,29.697],[-94.936,29.693],[-94.921,29.658],[-94.893,29.661],[-94.873,29.671],[-94.851,29.721],[-94.816,29.757],[-94.739,29.792],[-94.69,29.753],[-94.691,29.69],[-94.707,29.625],[-94.755,29.563],[-94.791,29.548],[-94.781,29.531],[-94.758,29.525],[-94.557,29.576],[-94.521,29.545],[-94.474,29.56],[-94.466,29.552],[-94.527,29.513],[-94.566,29.53],[-94.609,29.483],[-94.682,29.471],[-94.706,29.437],[-94.783,29.376],[-94.779,29.361],[-94.731,29.369],[-94.694,29.416],[-94.595,29.468],[-94.096,29.661],[-94.001,29.681],[-93.838,29.679],[-93.87,29.735],[-93.892,29.745],[-93.894,29.767],[-93.927,29.79],[-93.928,29.81],[-93.838,29.883],[-93.787,29.991],[-93.741,30.022],[-93.721,30.053],[-93.699,30.059],[-93.734,30.086],[-93.688,30.141],[-93.721,30.21],[-93.705,30.243],[-93.707,30.281],[-93.766,30.333],[-93.758,30.39],[-93.698,30.441],[-93.714,30.519],[-93.74,30.54],[-93.729,30.545],[-93.728,30.574],[-93.681,30.596],[-93.683,30.641],[-93.63,30.68],[-93.61,30.723],[-93.619,30.742],[-93.593,30.764],[-93.584,30.797],[-93.562,30.808],[-93.554,30.835],[-93.568,30.888],[-93.526,30.939],[-93.572,30.988],[-93.566,31.005],[-93.54,31.008],[-93.516,31.03],[-93.532,31.055],[-93.526,31.071],[-93.551,31.091],[-93.533,31.184],[-93.589,31.166],[-93.6,31.176],[-93.62,31.271],[-93.643,31.27],[-93.687,31.305],[-93.664,31.36],[-93.672,31.393],[-93.705,31.411],[-93.701,31.438],[-93.749,31.469],[-93.727,31.512],[-93.798,31.534],[-93.835,31.586],[-93.838,31.607],[-93.817,31.623],[-93.826,31.667],[-93.802,31.693],[-93.831,31.746],[-93.823,31.774],[-93.875,31.822],[-93.905,31.891],[-93.928,31.891],[-93.972,31.92],[-94.019,31.991],[-94.042,31.992],[-94.043,33.551],[-94.056,33.567],[-94.103,33.57],[-94.124,33.552],[-94.143,33.578],[-94.183,33.592],[-94.226,33.553],[-94.25,33.557],[-94.239,33.577],[-94.253,33.586],[-94.271,33.565],[-94.298,33.576],[-94.31,33.552],[-94.331,33.553],[-94.338,33.567],[-94.359,33.543],[-94.393,33.551],[-94.378,33.575],[-94.386,33.582],[-94.419,33.577],[-94.458,33.598],[-94.459,33.645],[-94.521,33.617],[-94.533,33.638],[-94.553,33.638],[-94.552,33.653],[-94.571,33.655],[-94.58,33.678],[-94.603,33.671],[-94.621,33.681],[-94.643,33.668],[-94.652,33.691],[-94.708,33.687],[-94.711,33.706],[-94.732,33.7],[-94.743,33.727],[-94.768,33.738],[-94.768,33.753],[-94.799,33.745],[-94.817,33.752],[-94.831,33.74],[-94.869,33.746],[-94.879,33.765],[-94.92,33.786],[-94.919,33.81],[-94.944,33.812],[-94.969,33.861],[-94.988,33.851],[-95.008,33.866],[-95.047,33.863],[-95.065,33.9],[-95.09,33.893],[-95.101,33.912],[-95.122,33.919],[-95.125,33.935],[-95.226,33.962],[-95.253,33.934],[-95.253,33.905],[-95.278,33.901],[-95.288,33.875],[-95.333,33.886],[-95.339,33.869],[-95.447,33.869],[-95.463,33.872],[-95.465,33.887],[-95.502,33.875],[-95.515,33.891],[-95.545,33.88],[-95.559,33.93],[-95.6,33.934],[-95.697,33.885],[-95.756,33.893],[-95.754,33.856],[-95.772,33.844],[-95.805,33.861],[-95.838,33.836],[-95.935,33.887],[-95.944,33.86],[-95.991,33.867],[-96.02,33.841],[-96.029,33.852],[-96.049,33.836],[-96.1,33.848],[-96.099,33.83],[-96.148,33.838],[-96.151,33.817],[-96.179,33.811],[-96.162,33.796],[-96.178,33.761],[-96.221,33.747],[-96.292,33.766],[-96.317,33.699],[-96.348,33.686],[-96.423,33.776],[-96.5,33.773],[-96.527,33.821],[-96.573,33.819],[-96.629,33.845],[-96.588,33.895],[-96.628,33.894],[-96.667,33.917],[-96.7,33.839],[-96.762,33.824],[-96.794,33.869],[-96.832,33.875],[-96.851,33.847],[-96.875,33.861],[-96.916,33.958],[-96.974,33.936],[-96.981,33.956],[-96.996,33.942],[-96.986,33.887],[-97.024,33.844],[-97.041,33.838],[-97.068,33.86],[-97.087,33.853],[-97.09,33.845],[-97.058,33.835],[-97.048,33.817],[-97.092,33.804],[-97.086,33.744],[-97.126,33.717],[-97.172,33.738],[-97.205,33.801],[-97.2,33.827],[-97.167,33.847],[-97.181,33.895],[-97.211,33.916],[-97.245,33.903],[-97.256,33.864],[-97.299,33.88],[-97.318,33.865],[-97.333,33.874],[-97.369,33.821],[-97.426,33.819],[-97.463,33.842],[-97.451,33.871],[-97.46,33.904],[-97.501,33.92],[-97.552,33.898],[-97.587,33.902],[-97.597,33.918],[-97.59,33.954],[-97.672,33.991],[-97.693,33.984],[-97.725,33.941],[-97.763,33.934],[-97.759,33.919],[-97.784,33.911],[-97.785,33.891],[-97.834,33.858],[-97.871,33.849],[-97.968,33.882],[-97.985,33.901],[-97.979,33.913],[-97.957,33.914],[-97.953,33.936],[-97.974,33.943],[-97.946,33.99],[-97.974,34.007],[-98.028,33.993],[-98.088,34.005],[-98.105,34.031],[-98.096,34.045],[-98.12,34.072],[-98.09,34.128],[-98.109,34.154],[-98.131,34.151],[-98.169,34.114],[-98.294,34.133],[-98.364,34.157],[-98.398,34.128],[-98.4,34.1],[-98.414,34.085],[-98.486,34.063],[-98.6,34.161],[-98.648,34.164],[-98.69,34.133],[-98.734,34.136],[-98.757,34.125],[-98.813,34.158],[-98.856,34.162],[-98.868,34.15],[-98.873,34.167],[-98.918,34.182],[-98.953,34.213],[-98.974,34.204],[-98.987,34.221],[-99.043,34.198],[-99.08,34.212],[-99.127,34.203],[-99.131,34.219],[-99.159,34.209],[-99.19,34.214],[-99.213,34.34],[-99.233,34.342],[-99.243,34.373],[-99.275,34.385],[-99.259,34.391],[-99.261,34.403],[-99.295,34.415],[-99.32,34.409],[-99.359,34.456],[-99.381,34.457],[-99.395,34.442],[-99.403,34.373],[-99.441,34.374],[-99.514,34.414],[-99.57,34.418],[-99.6,34.375],[-99.696,34.381],[-99.767,34.431],[-99.825,34.498],[-99.923,34.575],[-99.955,34.578],[-99.972,34.562],[-100.0,34.561],[-100.0,36.5],[-103.042,36.5],[-103.044,34.018],[-103.065,33.0],[-103.064,32.001],[-106.618,32.0],[-106.64,31.98],[-106.619,31.965],[-106.624,31.931],[-106.612,31.919],[-106.645,31.899]]]},"properties":{"STATE":"48","NAME":"Texas","GEOID":"48"}},{"type":"Feature","geometry":{"type":"MultiPolygon","coordinates":[[[[-91.655,31.252],[-91.59,31.194],[-91.626,31.119],[-91.56,31.054],[-91.578,31.024],[-91.637,30.999],[-89.73,31.004],[-89.737,30.976],[-89.727,30.967],[-89.756,30.943],[-89.745,30.919],[-89.764,30.912],[-89.759,30.897],[-89.773,30.898],[-89.779,30.875],[-89.768,30.864],[-89.79,30.838],[-89.781,30.82],[-89.799,30.821],[-89.805,30.791],[-89.819,30.795],[-89.832,30.768],[-89.816,30.739],[-89.837,30.735],[-89.828,30.725],[-89.847,30.706],[-89.835,30.691],[-89.852,30.663],[-89.822,30.644],[-89.82,30.595],[-89.807,30.587],[-89.808,30.568],[-89.79,30.567],[-89.804,30.561],[-89.795,30.547],[-89.78,30.544],[-89.768,30.515],[-89.683,30.452],[-89.684,30.406],[-89.657,30.357],[-89.63,30.339],[-89.626,30.314],[-89.643,30.288],[-89.631,30.28],[-89.632,30.257],[-89.614,30.245],[-89.616,30.223],[-89.57,30.18],[-89.539,30.196],[-89.525,30.181],[-89.48,30.194],[-89.464,30.174],[-89.448,30.185],[-89.419,30.254],[-89.323,30.315],[-89.333,30.338],[-89.366,30.352],[-89.336,30.374],[-89.315,30.375],[-89.28,30.35],[-89.292,30.328],[-89.286,30.303],[-89.083,30.368],[-88.922,30.394],[-88.885,30.392],[-88.819,30.361],[-88.812,30.385],[-88.729,30.343],[-88.664,30.362],[-88.6,30.357],[-88.582,30.331],[-88.536,30.343],[-88.48,30.318],[-88.434,30.355],[-88.41,30.342],[-88.394,30.349],[-88.473,31.894],[-88.098,34.892],[-88.155,34.922],[-88.2,34.996],[-90.309,34.996],[-90.245,34.947],[-90.242,34.916],[-90.256,34.895],[-90.318,34.871],[-90.304,34.86],[-90.307,34.847],[-90.338,34.858],[-90.389,34.831],[-90.437,34.826],[-90.448,34.842],[-90.429,34.867],[-90.437,34.884],[-90.478,34.884],[-90.485,34.866],[-90.457,34.82],[-90.477,34.797],[-90.448,34.742],[-90.483,34.722],[-90.517,34.727],[-90.524,34.731],[-90.493,34.772],[-90.521,34.802],[-90.548,34.783],[-90.539,34.755],[-90.546,34.739],[-90.564,34.738],[-90.572,34.714],[-90.517,34.696],[-90.474,34.705],[-90.463,34.686],[-90.473,34.666],[-90.532,34.627],[-90.555,34.647],[-90.541,34.681],[-90.57,34.692],[-90.592,34.621],[-90.54,34.554],[-90.543,34.54],[-90.581,34.516],[-90.593,34.488],[-90.578,34.432],[-90.584,34.412],[-90.658,34.376],[-90.661,34.315],[-90.693,34.323],[-90.683,34.367],[-90.76,34.367],[-90.768,34.346],[-90.736,34.311],[-90.738,34.289],[-90.766,34.27],[-90.834,34.274],[-90.846,34.208],[-90.879,34.215],[-90.91,34.246],[-90.936,34.237],[-90.912,34.194],[-90.888,34.182],[-90.817,34.183],[-90.808,34.162],[-90.823,34.144],[-90.853,34.138],[-90.91,34.166],[-90.957,34.137],[-90.948,34.11],[-90.921,34.094],[-90.883,34.097],[-90.871,34.081],[-90.893,34.027],[-90.988,34.019],[-90.962,33.98],[-90.968,33.964],[-91.001,33.967],[-91.017,34.0],[-91.051,33.993],[-91.085,34.008],[-91.086,33.957],[-91.019,33.942],[-91.01,33.929],[-91.073,33.866],[-91.066,33.838],[-91.049,33.816],[-90.989,33.783],[-91.023,33.764],[-91.053,33.778],[-91.109,33.772],[-91.129,33.784],[-91.144,33.77],[-91.149,33.732],[-91.117,33.705],[-91.059,33.715],[-91.03,33.683],[-91.035,33.673],[-91.088,33.657],[-91.125,33.672],[-91.16,33.707],[-91.21,33.701],[-91.229,33.686],[-91.222,33.663],[-91.171,33.649],[-91.129,33.609],[-91.166,33.57],[-91.232,33.565],[-91.221,33.533],[-91.187,33.5],[-91.234,33.443],[-91.183,33.44],[-91.172,33.45],[-91.171,33.492],[-91.134,33.483],[-91.119,33.446],[-91.138,33.427],[-91.209,33.407],[-91.183,33.386],[-91.148,33.379],[-91.095,33.418],[-91.088,33.45],[-91.059,33.449],[-91.074,33.408],[-91.142,33.35],[-91.142,33.3],[-91.107,33.242],[-91.096,33.243],[-91.076,33.284],[-91.048,33.283],[-91.044,33.272],[-91.053,33.248],[-91.099,33.22],[-91.081,33.184],[-91.09,33.134],[-91.147,33.13],[-91.184,33.142],[-91.202,33.122],[-91.2,33.107],[-91.12,33.055],[-91.127,33.036],[-91.163,33.018],[-91.169,32.992],[-91.202,32.961],[-91.212,32.92],[-91.175,32.9],[-91.145,32.905],[-91.131,32.927],[-91.136,32.98],[-91.107,32.989],[-91.087,32.976],[-91.064,32.923],[-91.071,32.889],[-91.144,32.845],[-91.158,32.822],[-91.166,32.758],[-91.159,32.743],[-91.091,32.736],[-91.055,32.719],[-91.15,32.644],[-91.151,32.616],[-91.12,32.585],[-91.05,32.607],[-91.038,32.636],[-91.014,32.64],[-91.003,32.623],[-91.01,32.602],[-91.077,32.559],[-90.995,32.509],[-90.991,32.488],[-91.038,32.49],[-91.098,32.545],[-91.116,32.483],[-91.053,32.438],[-91.03,32.434],[-90.994,32.451],[-90.97,32.439],[-90.966,32.421],[-90.994,32.404],[-91.005,32.368],[-90.994,32.354],[-90.912,32.339],[-90.889,32.373],[-90.876,32.372],[-90.876,32.358],[-90.934,32.29],[-90.951,32.283],[-90.964,32.297],[-90.979,32.294],[-90.983,32.27],[-90.969,32.253],[-90.991,32.199],[-91.004,32.201],[-91.003,32.223],[-91.039,32.242],[-91.061,32.219],[-91.084,32.226],[-91.109,32.208],[-91.134,32.213],[-91.164,32.197],[-91.175,32.155],[-91.163,32.133],[-91.053,32.124],[-91.059,32.171],[-91.05,32.178],[-91.006,32.157],[-91.005,32.143],[-91.031,32.121],[-91.035,32.101],[-91.082,32.078],[-91.08,32.048],[-91.104,32.05],[-91.139,32.082],[-91.16,32.07],[-91.151,32.049],[-91.088,32.034],[-91.076,32.017],[-91.104,31.99],[-91.164,31.983],[-91.185,31.966],[-91.193,31.936],[-91.181,31.918],[-91.268,31.863],[-91.245,31.831],[-91.256,31.813],[-91.282,31.815],[-91.293,31.86],[-91.346,31.843],[-91.365,31.77],[-91.274,31.771],[-91.263,31.754],[-91.381,31.732],[-91.4,31.698],[-91.401,31.62],[-91.43,31.611],[-91.474,31.625],[-91.494,31.645],[-91.512,31.635],[-91.517,31.612],[-91.489,31.587],[-91.404,31.59],[-91.408,31.569],[-91.444,31.542],[-91.523,31.522],[-91.515,31.449],[-91.472,31.396],[-91.472,31.371],[-91.516,31.37],[-91.541,31.431],[-91.565,31.423],[-91.578,31.399],[-91.569,31.378],[-91.546,31.382],[-91.549,31.347],[-91.509,31.315],[-91.512,31.284],[-91.564,31.262],[-91.641,31.267],[-91.655,31.252]]],[[[-88.511,30.217],[-88.494,30.197],[-88.454,30.189],[-88.405,30.206],[-88.409,30.219],[-88.453,30.206],[-88.511,30.217]]],[[[-88.772,30.246],[-88.757,30.233],[-88.587,30.219],[-88.715,30.257],[-88.772,30.246]]],[[[-88.989,30.216],[-88.993,30.208],[-88.971,30.201],[-88.947,30.206],[-88.894,30.225],[-88.872,30.245],[-88.989,30.216]]],[[[-89.16,30.239],[-89.17,30.229],[-89.109,30.206],[-89.074,30.212],[-89.056,30.249],[-89.071,30.258],[-89.085,30.238],[-89.16,30.239]]]]},"properties":{"STATE":"28","NAME":"Mississippi","GEOID":"28"}},{"type":"Feature","geometry":{"type":"Polygon","coordinates":[[[-94.618,36.499],[-94.431,35.394],[-94.486,33.638],[-94.459,33.645],[-94.458,33.598],[-94.419,33.577],[-94.386,33.582],[-94.378,33.575],[-94.393,33.551],[-94.359,33.543],[-94.338,33.567],[-94.331,33.553],[-94.31,33.552],[-94.298,33.576],[-94.271,33.565],[-94.253,33.586],[-94.239,33.577],[-94.25,33.557],[-94.226,33.553],[-94.183,33.592],[-94.143,33.578],[-94.124,33.552],[-94.103,33.57],[-94.073,33.572],[-94.043,33.552],[-94.043,33.019],[-91.166,33.004],[-91.12,33.055],[-91.2,33.107],[-91.202,33.122],[-91.184,33.142],[-91.11,33.129],[-91.085,33.141],[-91.081,33.184],[-91.099,33.22],[-91.053,33.248],[-91.044,33.272],[-91.048,33.283],[-91.076,33.284],[-91.096,33.243],[-91.107,33.242],[-91.142,33.3],[-91.142,33.35],[-91.074,33.408],[-91.059,33.449],[-91.088,33.45],[-91.095,33.418],[-91.13,33.385],[-91.167,33.38],[-91.206,33.4],[-91.202,33.417],[-91.138,33.427],[-91.117,33.455],[-91.158,33.496],[-91.171,33.492],[-91.172,33.45],[-91.183,33.44],[-91.23,33.437],[-91.231,33.458],[-91.187,33.5],[-91.221,33.533],[-91.232,33.565],[-91.166,33.57],[-91.129,33.609],[-91.171,33.649],[-91.209,33.656],[-91.23,33.676],[-91.22,33.697],[-91.16,33.707],[-91.125,33.672],[-91.088,33.657],[-91.035,33.673],[-91.03,33.683],[-91.059,33.715],[-91.117,33.705],[-91.149,33.732],[-91.144,33.77],[-91.129,33.784],[-91.109,33.772],[-91.053,33.778],[-91.023,33.764],[-90.989,33.783],[-91.049,33.816],[-91.066,33.838],[-91.073,33.866],[-91.01,33.929],[-91.019,33.942],[-91.086,33.957],[-91.085,34.008],[-91.051,33.993],[-91.017,34.0],[-91.001,33.967],[-90.968,33.964],[-90.962,33.98],[-90.988,34.019],[-90.893,34.027],[-90.871,34.081],[-90.883,34.097],[-90.921,34.094],[-90.948,34.11],[-90.957,34.137],[-90.91,34.166],[-90.853,34.138],[-90.823,34.144],[-90.808,34.162],[-90.817,34.183],[-90.888,34.182],[-90.912,34.194],[-90.936,34.237],[-90.91,34.246],[-90.879,34.215],[-90.846,34.208],[-90.834,34.274],[-90.766,34.27],[-90.738,34.289],[-90.736,34.311],[-90.768,34.346],[-90.76,34.367],[-90.683,34.367],[-90.693,34.323],[-90.661,34.315],[-90.658,34.376],[-90.584,34.412],[-90.578,34.432],[-90.593,34.488],[-90.581,34.516],[-90.543,34.54],[-90.54,34.554],[-90.592,34.621],[-90.57,34.692],[-90.541,34.681],[-90.555,34.647],[-90.532,34.627],[-90.473,34.666],[-90.463,34.686],[-90.474,34.705],[-90.517,34.696],[-90.572,34.714],[-90.564,34.738],[-90.546,34.739],[-90.539,34.755],[-90.548,34.783],[-90.521,34.802],[-90.493,34.772],[-90.524,34.731],[-90.517,34.727],[-90.483,34.722],[-90.448,34.742],[-90.477,34.797],[-90.457,34.82],[-90.485,34.866],[-90.478,34.884],[-90.437,34.884],[-90.429,34.867],[-90.448,34.842],[-90.437,34.826],[-90.389,34.831],[-90.338,34.858],[-90.307,34.847],[-90.304,34.86],[-90.318,34.871],[-90.256,34.895],[-90.242,34.916],[-90.245,34.947],[-90.309,34.996],[-90.297,35.039],[-90.207,35.026],[-90.181,35.054],[-90.169,35.122],[-90.147,35.133],[-90.087,35.119],[-90.066,35.137],[-90.068,35.155],[-90.117,35.189],[-90.077,35.211],[-90.093,35.247],[-90.146,35.254],[-90.169,35.282],[-90.158,35.301],[-90.11,35.305],[-90.078,35.379],[-90.13,35.414],[-90.145,35.403],[-90.138,35.379],[-90.165,35.374],[-90.179,35.385],[-90.169,35.422],[-90.129,35.442],[-90.109,35.476],[-90.09,35.479],[-90.069,35.468],[-90.074,35.434],[-90.059,35.394],[-90.047,35.399],[-90.051,35.41],[-90.003,35.431],[-90.05,35.51],[-90.033,35.553],[-89.994,35.561],[-89.958,35.541],[-89.955,35.522],[-89.927,35.512],[-89.905,35.519],[-89.91,35.545],[-89.94,35.556],[-89.957,35.589],[-89.855,35.636],[-89.852,35.66],[-89.865,35.67],[-89.897,35.651],[-89.93,35.661],[-89.956,35.691],[-89.959,35.726],[-89.909,35.759],[-89.853,35.755],[-89.843,35.743],[-89.817,35.749],[-89.799,35.759],[-89.8,35.788],[-89.778,35.806],[-89.73,35.802],[-89.696,35.821],[-89.696,35.836],[-89.773,35.866],[-89.768,35.889],[-89.745,35.911],[-89.719,35.908],[-89.666,35.874],[-89.642,35.9],[-89.652,35.929],[-89.717,35.962],[-89.733,36.001],[-90.378,35.996],[-90.318,36.076],[-90.319,36.09],[-90.236,36.139],[-90.22,36.185],[-90.126,36.229],[-90.115,36.266],[-90.084,36.272],[-90.064,36.303],[-90.08,36.319],[-90.064,36.357],[-90.066,36.386],[-90.144,36.424],[-90.134,36.437],[-90.142,36.472],[-90.16,36.481],[-90.152,36.498],[-94.618,36.499]]]},"properties":{"STATE":"05","NAME":"Arkansas","GEOID":"05"}},{"type":"Feature","geometry":{"type":"Polygon","coordinates":[[[-85.605,34.985],[-85.184,32.861],[-85.153,32.843],[-85.168,32.812],[-85.122,32.773],[-85.139,32.76],[-85.114,32.73],[-85.123,32.716],[-85.115,32.686],[-85.089,32.658],[-85.105,32.645],[-85.068,32.58],[-85.007,32.524],[-84.995,32.453],[-84.972,32.443],[-84.963,32.423],[-84.975,32.415],[-84.983,32.363],[-85.008,32.337],[-85.002,32.322],[-84.934,32.298],[-84.889,32.262],[-84.914,32.249],[-84.925,32.222],[-84.967,32.219],[-84.979,32.207],[-84.962,32.199],[-85.011,32.18],[-85.059,32.136],[-85.047,32.087],[-85.054,32.014],[-85.082,31.945],[-85.13,31.884],[-85.142,31.839],[-85.119,31.733],[-85.126,31.695],[-85.062,31.623],[-85.058,31.571],[-85.042,31.545],[-85.072,31.468],[-85.066,31.431],[-85.092,31.363],[-85.09,31.295],[-85.115,31.276],[-85.099,31.233],[-85.108,31.186],[-85.036,31.108],[-85.011,31.054],[-85.005,30.975],[-84.983,30.966],[-84.983,30.935],[-84.936,30.882],[-84.936,30.821],[-84.914,30.752],[-84.896,30.751],[-84.865,30.712],[-82.215,30.569],[-82.236,30.537],[-82.201,30.485],[-82.21,30.425],[-82.193,30.379],[-82.162,30.358],[-82.105,30.368],[-82.06,30.36],[-82.037,30.378],[-82.037,30.435],[-82.018,30.475],[-82.018,30.531],[-82.005,30.563],[-82.05,30.656],[-82.036,30.707],[-82.044,30.73],[-82.039,30.749],[-82.012,30.763],[-82.023,30.788],[-81.974,30.778],[-81.95,30.827],[-81.896,30.821],[-81.869,30.793],[-81.807,30.79],[-81.72,30.745],[-81.662,30.747],[-81.646,30.728],[-81.625,30.733],[-81.618,30.722],[-81.541,30.713],[-81.487,30.726],[-81.444,30.71],[-81.46,30.77],[-81.405,30.908],[-81.403,30.958],[-81.408,30.978],[-81.427,30.957],[-81.494,30.978],[-81.451,31.016],[-81.42,31.017],[-81.401,31.073],[-81.4,31.134],[-81.368,31.137],[-81.339,31.187],[-81.314,31.208],[-81.288,31.211],[-81.275,31.289],[-81.255,31.315],[-81.283,31.326],[-81.279,31.367],[-81.177,31.517],[-81.2,31.538],[-81.259,31.529],[-81.26,31.548],[-81.204,31.568],[-81.173,31.556],[-81.133,31.623],[-81.131,31.696],[-81.161,31.691],[-81.204,31.719],[-81.193,31.733],[-81.131,31.723],[-81.068,31.769],[-81.037,31.813],[-81.04,31.823],[-81.076,31.829],[-81.059,31.85],[-81.065,31.877],[-80.993,31.858],[-80.935,31.909],[-80.968,31.916],[-80.972,31.941],[-80.948,31.957],[-80.911,31.944],[-80.863,31.969],[-80.842,32.003],[-80.843,32.024],[-80.88,32.019],[-80.892,32.034],[-80.923,32.039],[-81.002,32.1],[-81.05,32.085],[-81.117,32.118],[-81.13,32.166],[-81.118,32.189],[-81.157,32.244],[-81.12,32.288],[-81.122,32.305],[-81.134,32.341],[-81.17,32.361],[-81.177,32.392],[-81.205,32.424],[-81.202,32.45],[-81.187,32.464],[-81.234,32.498],[-81.235,32.516],[-81.277,32.535],[-81.281,32.556],[-81.367,32.577],[-81.419,32.629],[-81.393,32.652],[-81.407,32.661],[-81.408,32.695],[-81.428,32.702],[-81.41,32.745],[-81.429,32.786],[-81.418,32.818],[-81.426,32.841],[-81.454,32.85],[-81.454,32.874],[-81.479,32.881],[-81.464,32.898],[-81.502,32.935],[-81.508,32.958],[-81.492,33.009],[-81.599,33.072],[-81.613,33.094],[-81.646,33.095],[-81.744,33.141],[-81.772,33.18],[-81.757,33.198],[-81.769,33.217],[-81.805,33.211],[-81.852,33.248],[-81.838,33.273],[-81.863,33.289],[-81.847,33.307],[-81.884,33.31],[-81.9,33.331],[-81.909,33.324],[-81.918,33.342],[-81.94,33.345],[-81.946,33.371],[-81.925,33.374],[-81.937,33.404],[-81.92,33.411],[-81.927,33.427],[-81.913,33.437],[-81.926,33.463],[-81.986,33.487],[-82.001,33.52],[-82.046,33.564],[-82.106,33.596],[-82.143,33.594],[-82.186,33.621],[-82.201,33.665],[-82.235,33.7],[-82.247,33.753],[-82.298,33.784],[-82.3,33.801],[-82.324,33.82],[-82.455,33.882],[-82.525,33.943],[-82.557,33.945],[-82.595,34.029],[-82.644,34.072],[-82.642,34.092],[-82.677,34.132],[-82.718,34.151],[-82.742,34.21],[-82.747,34.266],[-82.78,34.297],[-82.794,34.34],[-82.835,34.366],[-82.861,34.457],[-82.877,34.475],[-82.941,34.486],[-83.003,34.472],[-83.035,34.483],[-83.087,34.516],[-83.078,34.525],[-83.102,34.532],[-83.17,34.592],[-83.17,34.605],[-83.232,34.611],[-83.255,34.638],[-83.339,34.682],[-83.353,34.729],[-83.32,34.76],[-83.324,34.79],[-83.29,34.824],[-83.268,34.821],[-83.268,34.845],[-83.255,34.846],[-83.238,34.877],[-83.206,34.88],[-83.203,34.894],[-83.121,34.939],[-83.127,34.954],[-83.107,34.983],[-83.109,35.001],[-83.62,34.987],[-85.605,34.985]]]},"properties":{"STATE":"13","NAME":"Georgia","GEOID":"13"}},{"type":"Feature","geometry":{"type":"Polygon","coordinates":[[[-83.353,34.729],[-83.339,34.682],[-83.255,34.638],[-83.232,34.611],[-83.17,34.605],[-83.17,34.592],[-83.102,34.532],[-83.078,34.525],[-83.087,34.516],[-83.035,34.483],[-83.003,34.472],[-82.941,34.486],[-82.877,34.475],[-82.861,34.457],[-82.835,34.366],[-82.794,34.34],[-82.78,34.297],[-82.747,34.266],[-82.742,34.21],[-82.718,34.151],[-82.677,34.132],[-82.642,34.092],[-82.644,34.072],[-82.595,34.029],[-82.557,33.945],[-82.525,33.943],[-82.455,33.882],[-82.324,33.82],[-82.3,33.801],[-82.298,33.784],[-82.247,33.753],[-82.235,33.7],[-82.201,33.665],[-82.186,33.621],[-82.143,33.594],[-82.106,33.596],[-82.046,33.564],[-82.001,33.52],[-81.986,33.487],[-81.926,33.463],[-81.913,33.437],[-81.927,33.427],[-81.92,33.411],[-81.937,33.404],[-81.925,33.374],[-81.946,33.371],[-81.94,33.345],[-81.918,33.342],[-81.909,33.324],[-81.9,33.331],[-81.884,33.31],[-81.847,33.307],[-81.863,33.289],[-81.838,33.273],[-81.852,33.248],[-81.805,33.211],[-81.769,33.217],[-81.757,33.198],[-81.772,33.18],[-81.744,33.141],[-81.646,33.095],[-81.613,33.094],[-81.599,33.072],[-81.492,33.009],[-81.508,32.958],[-81.502,32.935],[-81.464,32.898],[-81.479,32.881],[-81.454,32.874],[-81.454,32.85],[-81.426,32.841],[-81.418,32.818],[-81.429,32.786],[-81.41,32.745],[-81.428,32.702],[-81.408,32.695],[-81.407,32.661],[-81.393,32.652],[-81.419,32.629],[-81.367,32.577],[-81.281,32.556],[-81.277,32.535],[-81.235,32.516],[-81.234,32.498],[-81.187,32.464],[-81.202,32.45],[-81.205,32.424],[-81.177,32.392],[-81.17,32.361],[-81.134,32.341],[-81.122,32.305],[-81.12,32.288],[-81.157,32.244],[-81.118,32.189],[-81.13,32.166],[-81.117,32.118],[-81.05,32.085],[-81.002,32.1],[-80.918,32.038],[-80.892,32.034],[-80.904,32.056],[-80.846,32.114],[-80.817,32.109],[-80.737,32.148],[-80.671,32.217],[-80.678,32.236],[-80.718,32.267],[-80.738,32.264],[-80.761,32.28],[-80.766,32.293],[-80.737,32.306],[-80.734,32.319],[-80.715,32.326],[-80.689,32.303],[-80.645,32.291],[-80.646,32.265],[-80.633,32.256],[-80.455,32.326],[-80.43,32.402],[-80.458,32.41],[-80.48,32.447],[-80.472,32.497],[-80.423,32.498],[-80.413,32.471],[-80.357,32.502],[-80.332,32.478],[-80.251,32.534],[-80.199,32.559],[-80.167,32.56],[-80.109,32.596],[-80.006,32.611],[-79.975,32.64],[-79.885,32.684],[-79.868,32.735],[-79.879,32.751],[-79.929,32.754],[-79.923,32.782],[-79.886,32.788],[-79.849,32.755],[-79.726,32.806],[-79.696,32.852],[-79.582,32.908],[-79.574,32.923],[-79.607,32.926],[-79.618,32.953],[-79.558,33.021],[-79.522,33.035],[-79.466,33.012],[-79.367,33.011],[-79.33,33.09],[-79.249,33.126],[-79.194,33.173],[-79.135,33.404],[-79.085,33.484],[-78.939,33.64],[-78.763,33.775],[-78.662,33.821],[-78.542,33.852],[-79.675,34.805],[-80.798,34.82],[-80.782,34.936],[-80.935,35.107],[-81.041,35.045],[-81.058,35.073],[-81.052,35.096],[-81.033,35.108],[-81.051,35.132],[-81.044,35.15],[-82.275,35.2],[-82.371,35.181],[-82.393,35.215],[-82.42,35.199],[-82.44,35.166],[-82.46,35.178],[-82.662,35.118],[-82.684,35.126],[-82.695,35.098],[-82.727,35.094],[-82.758,35.068],[-82.777,35.064],[-82.776,35.081],[-82.788,35.085],[-83.109,35.001],[-83.107,34.983],[-83.127,34.954],[-83.121,34.939],[-83.203,34.894],[-83.206,34.88],[-83.239,34.876],[-83.255,34.846],[-83.268,34.845],[-83.268,34.821],[-83.29,34.824],[-83.324,34.79],[-83.32,34.76],[-83.353,34.729]]]},"properties":{"STATE":"45","NAME":"South Carolina","GEOID":"45"}},{"type":"Feature","geometry":{"type":"MultiPolygon","coordinates":[[[[-88.473,31.894],[-88.395,30.369],[-88.364,30.388],[-88.332,30.388],[-88.312,30.369],[-88.261,30.382],[-88.2,30.362],[-88.189,30.348],[-88.198,30.339],[-88.192,30.317],[-88.136,30.321],[-88.107,30.377],[-88.104,30.501],[-88.083,30.529],[-88.085,30.563],[-88.054,30.612],[-88.062,30.645],[-88.035,30.654],[-88.008,30.685],[-87.937,30.657],[-87.913,30.616],[-87.902,30.551],[-87.933,30.487],[-87.909,30.414],[-87.845,30.377],[-87.809,30.333],[-87.773,30.312],[-87.755,30.277],[-87.788,30.254],[-87.879,30.239],[-87.936,30.261],[-87.967,30.236],[-88.024,30.23],[-88.028,30.221],[-87.801,30.229],[-87.518,30.28],[-87.467,30.302],[-87.464,30.312],[-87.496,30.318],[-87.452,30.344],[-87.43,30.406],[-87.368,30.433],[-87.371,30.447],[-87.425,30.466],[-87.431,30.496],[-87.448,30.51],[-87.395,30.615],[-87.407,30.675],[-87.533,30.743],[-87.545,30.779],[-87.616,30.835],[-87.635,30.866],[-87.592,30.951],[-87.599,30.997],[-85.002,31.001],[-85.036,31.108],[-85.108,31.186],[-85.099,31.233],[-85.115,31.276],[-85.09,31.295],[-85.092,31.363],[-85.066,31.431],[-85.072,31.468],[-85.042,31.545],[-85.058,31.571],[-85.062,31.623],[-85.126,31.695],[-85.119,31.733],[-85.142,31.839],[-85.13,31.884],[-85.082,31.945],[-85.054,32.014],[-85.047,32.087],[-85.059,32.136],[-85.011,32.18],[-84.962,32.199],[-84.979,32.207],[-84.967,32.219],[-84.925,32.222],[-84.914,32.249],[-84.889,32.262],[-84.934,32.298],[-85.002,32.322],[-85.008,32.337],[-84.983,32.363],[-84.975,32.415],[-84.963,32.423],[-84.972,32.443],[-84.995,32.453],[-85.007,32.524],[-85.068,32.58],[-85.105,32.645],[-85.089,32.658],[-85.115,32.686],[-85.123,32.716],[-85.114,32.73],[-85.139,32.76],[-85.122,32.773],[-85.168,32.812],[-85.153,32.843],[-85.184,32.861],[-85.605,34.985],[-88.203,35.008],[-88.155,34.922],[-88.098,34.892],[-88.473,31.894]]],[[[-88.044,30.517],[-88.053,30.506],[-88.026,30.491],[-88.025,30.516],[-88.044,30.517]]],[[[-88.267,30.354],[-88.273,30.333],[-88.258,30.319],[-88.248,30.326],[-88.251,30.367],[-88.261,30.372],[-88.267,30.354]]],[[[-88.331,30.235],[-88.325,30.223],[-88.279,30.222],[-88.167,30.241],[-88.107,30.225],[-88.075,30.249],[-88.125,30.284],[-88.131,30.262],[-88.331,30.235]]]]},"properties":{"STATE":"01","NAME":"Alabama","GEOID":"01"}},{"type":"Feature","geometry":{"type":"Polygon","coordinates":[[[-90.31,35.008],[-90.309,34.996],[-89.883,34.994],[-88.2,34.996],[-88.203,35.008],[-85.467,34.983],[-84.322,34.988],[-84.29,35.226],[-84.224,35.269],[-84.188,35.24],[-84.098,35.247],[-84.053,35.27],[-84.021,35.301],[-84.036,35.313],[-84.038,35.348],[-84.008,35.372],[-84.021,35.41],[-83.961,35.464],[-83.912,35.476],[-83.88,35.519],[-83.826,35.524],[-83.772,35.562],[-83.64,35.566],[-83.609,35.579],[-83.586,35.563],[-83.498,35.563],[-83.446,35.612],[-83.397,35.623],[-83.352,35.66],[-83.297,35.658],[-83.258,35.692],[-83.251,35.72],[-83.186,35.73],[-83.159,35.765],[-83.12,35.766],[-83.074,35.79],[-82.992,35.774],[-82.964,35.79],[-82.946,35.825],[-82.92,35.842],[-82.918,35.864],[-82.9,35.875],[-82.912,35.922],[-82.899,35.945],[-82.853,35.949],[-82.822,35.922],[-82.805,35.927],[-82.775,35.972],[-82.786,35.978],[-82.776,36.0],[-82.637,36.066],[-82.595,36.03],[-82.614,36.004],[-82.604,35.987],[-82.611,35.967],[-82.558,35.954],[-82.461,36.008],[-82.409,36.083],[-82.355,36.116],[-82.289,36.136],[-82.248,36.131],[-82.214,36.159],[-82.183,36.144],[-82.148,36.15],[-82.127,36.104],[-82.08,36.106],[-82.054,36.127],[-82.033,36.12],[-81.908,36.302],[-81.801,36.358],[-81.766,36.339],[-81.707,36.335],[-81.74,36.407],[-81.721,36.423],[-81.715,36.457],[-81.695,36.468],[-81.708,36.536],[-81.69,36.552],[-81.69,36.569],[-81.677,36.571],[-81.68,36.586],[-81.647,36.612],[-81.923,36.616],[-81.934,36.594],[-83.675,36.601],[-83.691,36.583],[-84.543,36.596],[-85.195,36.625],[-85.678,36.618],[-86.508,36.652],[-86.564,36.633],[-86.59,36.652],[-87.853,36.633],[-87.85,36.664],[-88.071,36.678],[-88.032,36.541],[-88.053,36.497],[-89.3,36.507],[-89.417,36.499],[-89.448,36.464],[-89.472,36.457],[-89.493,36.47],[-89.485,36.497],[-89.539,36.498],[-89.52,36.467],[-89.545,36.427],[-89.51,36.378],[-89.513,36.36],[-89.532,36.339],[-89.606,36.342],[-89.62,36.323],[-89.578,36.288],[-89.539,36.277],[-89.535,36.253],[-89.602,36.238],[-89.695,36.253],[-89.705,36.24],[-89.592,36.15],[-89.602,36.119],[-89.679,36.085],[-89.689,36.029],[-89.707,36.001],[-89.733,36.001],[-89.717,35.962],[-89.644,35.921],[-89.646,35.886],[-89.676,35.877],[-89.719,35.908],[-89.745,35.911],[-89.768,35.889],[-89.773,35.866],[-89.696,35.836],[-89.696,35.821],[-89.73,35.802],[-89.778,35.806],[-89.8,35.788],[-89.799,35.759],[-89.817,35.749],[-89.843,35.743],[-89.853,35.755],[-89.909,35.759],[-89.959,35.726],[-89.956,35.691],[-89.93,35.661],[-89.897,35.651],[-89.865,35.67],[-89.852,35.66],[-89.855,35.636],[-89.957,35.589],[-89.94,35.556],[-89.91,35.545],[-89.905,35.519],[-89.927,35.512],[-89.955,35.522],[-89.958,35.541],[-89.994,35.561],[-90.033,35.553],[-90.05,35.51],[-90.003,35.431],[-90.051,35.41],[-90.047,35.399],[-90.059,35.394],[-90.074,35.434],[-90.069,35.468],[-90.109,35.476],[-90.129,35.442],[-90.169,35.422],[-90.179,35.385],[-90.142,35.375],[-90.145,35.403],[-90.13,35.414],[-90.078,35.379],[-90.11,35.305],[-90.158,35.301],[-90.169,35.282],[-90.146,35.254],[-90.093,35.247],[-90.077,35.211],[-90.117,35.189],[-90.068,35.155],[-90.066,35.137],[-90.087,35.119],[-90.158,35.129],[-90.175,35.114],[-90.181,35.054],[-90.207,35.026],[-90.292,35.041],[-90.31,35.008]]]},"properties":{"STATE":"47","NAME":"Tennessee","GEOID":"47"}},{"type":"Feature","geometry":{"type":"Polygon","coordinates":[[[-103.003,36.527],[-103.002,36.5],[-100.0,36.5],[-100.0,34.561],[-99.972,34.562],[-99.955,34.578],[-99.923,34.575],[-99.825,34.498],[-99.767,34.431],[-99.696,34.381],[-99.6,34.375],[-99.57,34.418],[-99.514,34.414],[-99.441,34.374],[-99.403,34.373],[-99.395,34.442],[-99.381,34.457],[-99.359,34.456],[-99.32,34.409],[-99.295,34.415],[-99.261,34.403],[-99.259,34.391],[-99.275,34.385],[-99.243,34.373],[-99.233,34.342],[-99.213,34.34],[-99.19,34.214],[-99.159,34.209],[-99.131,34.219],[-99.127,34.203],[-99.08,34.212],[-99.043,34.198],[-98.987,34.221],[-98.974,34.204],[-98.953,34.213],[-98.918,34.182],[-98.873,34.167],[-98.868,34.15],[-98.856,34.162],[-98.813,34.158],[-98.757,34.125],[-98.734,34.136],[-98.69,34.133],[-98.648,34.164],[-98.6,34.161],[-98.486,34.063],[-98.414,34.085],[-98.4,34.1],[-98.398,34.128],[-98.364,34.157],[-98.294,34.133],[-98.169,34.114],[-98.131,34.151],[-98.109,34.154],[-98.09,34.128],[-98.12,34.072],[-98.096,34.045],[-98.105,34.031],[-98.088,34.005],[-98.028,33.993],[-97.974,34.007],[-97.946,33.99],[-97.974,33.943],[-97.953,33.936],[-97.957,33.914],[-97.979,33.913],[-97.985,33.901],[-97.968,33.882],[-97.871,33.849],[-97.834,33.858],[-97.785,33.891],[-97.784,33.911],[-97.759,33.919],[-97.763,33.934],[-97.725,33.941],[-97.693,33.984],[-97.672,33.991],[-97.59,33.954],[-97.597,33.918],[-97.587,33.902],[-97.552,33.898],[-97.501,33.92],[-97.46,33.904],[-97.451,33.871],[-97.463,33.842],[-97.426,33.819],[-97.369,33.821],[-97.333,33.874],[-97.318,33.865],[-97.299,33.88],[-97.256,33.864],[-97.245,33.903],[-97.211,33.916],[-97.181,33.895],[-97.167,33.847],[-97.2,33.827],[-97.205,33.801],[-97.172,33.738],[-97.126,33.717],[-97.086,33.744],[-97.092,33.804],[-97.048,33.817],[-97.058,33.835],[-97.09,33.845],[-97.087,33.853],[-97.068,33.86],[-97.041,33.838],[-97.024,33.844],[-96.986,33.887],[-96.996,33.942],[-96.981,33.956],[-96.974,33.936],[-96.916,33.958],[-96.875,33.861],[-96.851,33.847],[-96.832,33.875],[-96.794,33.869],[-96.762,33.824],[-96.7,33.839],[-96.667,33.917],[-96.628,33.894],[-96.588,33.895],[-96.629,33.845],[-96.573,33.819],[-96.527,33.821],[-96.5,33.773],[-96.423,33.776],[-96.348,33.686],[-96.317,33.699],[-96.292,33.766],[-96.221,33.747],[-96.178,33.761],[-96.162,33.796],[-96.179,33.811],[-96.151,33.817],[-96.148,33.838],[-96.099,33.83],[-96.1,33.848],[-96.049,33.836],[-96.029,33.852],[-96.02,33.841],[-95.991,33.867],[-95.944,33.86],[-95.935,33.887],[-95.838,33.836],[-95.805,33.861],[-95.772,33.844],[-95.754,33.856],[-95.756,33.893],[-95.697,33.885],[-95.6,33.934],[-95.559,33.93],[-95.545,33.88],[-95.515,33.891],[-95.502,33.875],[-95.465,33.887],[-95.463,33.872],[-95.447,33.869],[-95.339,33.869],[-95.333,33.886],[-95.288,33.875],[-95.278,33.901],[-95.253,33.905],[-95.253,33.934],[-95.226,33.962],[-95.125,33.935],[-95.122,33.919],[-95.101,33.912],[-95.09,33.893],[-95.065,33.9],[-95.047,33.863],[-95.008,33.866],[-94.988,33.851],[-94.969,33.861],[-94.944,33.812],[-94.919,33.81],[-94.92,33.786],[-94.879,33.765],[-94.869,33.746],[-94.831,33.74],[-94.817,33.752],[-94.799,33.745],[-94.771,33.754],[-94.732,33.7],[-94.711,33.706],[-94.708,33.687],[-94.652,33.691],[-94.643,33.668],[-94.621,33.681],[-94.603,33.671],[-94.58,33.678],[-94.571,33.655],[-94.552,33.653],[-94.553,33.638],[-94.533,33.638],[-94.526,33.619],[-94.488,33.629],[-94.431,35.394],[-94.618,36.499],[-94.618,36.999],[-103.002,37.0],[-103.003,36.527]]]},"properties":{"STATE":"40","NAME":"Oklahoma","GEOID":"40"}},{"type":"Feature","geometry":{"type":"MultiPolygon","coordinates":[[[[-87.635,30.866],[-87.616,30.835],[-87.545,30.779],[-87.533,30.743],[-87.407,30.675],[-87.396,30.65],[-87.397,30.609],[-87.448,30.51],[-87.431,30.496],[-87.425,30.466],[-87.367,30.437],[-87.43,30.406],[-87.452,30.344],[-87.496,30.318],[-87.464,30.312],[-87.467,30.302],[-87.518,30.28],[-87.295,30.324],[-87.206,30.321],[-86.751,30.392],[-86.633,30.396],[-86.412,30.38],[-86.223,30.344],[-85.923,30.238],[-85.775,30.156],[-85.697,30.097],[-85.588,30.056],[-85.572,30.026],[-85.509,29.971],[-85.405,29.938],[-85.302,29.809],[-85.306,29.725],[-85.323,29.698],[-85.358,29.693],[-85.402,29.803],[-85.394,29.863],[-85.407,29.868],[-85.415,29.855],[-85.422,29.828],[-85.403,29.737],[-85.369,29.681],[-85.348,29.667],[-85.291,29.684],[-85.222,29.678],[-85.084,29.615],[-85.049,29.587],[-84.777,29.692],[-84.694,29.768],[-84.803,29.699],[-84.902,29.668],[-85.014,29.614],[-85.072,29.632],[-85.074,29.674],[-85.134,29.691],[-85.145,29.703],[-85.136,29.712],[-84.993,29.715],[-84.904,29.786],[-84.877,29.773],[-84.902,29.736],[-84.888,29.722],[-84.868,29.742],[-84.756,29.789],[-84.692,29.829],[-84.656,29.834],[-84.603,29.876],[-84.512,29.917],[-84.452,29.929],[-84.424,29.903],[-84.349,29.897],[-84.336,29.913],[-84.337,29.943],[-84.366,30.009],[-84.277,30.06],[-84.273,30.092],[-84.256,30.104],[-84.237,30.086],[-84.199,30.088],[-84.168,30.071],[-84.063,30.101],[-84.001,30.096],[-83.932,30.039],[-83.679,29.919],[-83.638,29.886],[-83.619,29.842],[-83.595,29.828],[-83.585,29.776],[-83.538,29.723],[-83.494,29.708],[-83.455,29.676],[-83.413,29.668],[-83.399,29.613],[-83.4,29.517],[-83.331,29.476],[-83.312,29.476],[-83.295,29.438],[-83.218,29.42],[-83.176,29.345],[-83.17,29.29],[-83.077,29.255],[-83.088,29.216],[-83.061,29.176],[-83.068,29.153],[-83.053,29.131],[-83.019,29.141],[-82.992,29.181],[-82.805,29.147],[-82.799,29.111],[-82.824,29.099],[-82.817,29.076],[-82.781,29.074],[-82.783,29.065],[-82.76,29.054],[-82.754,29.026],[-82.764,29.0],[-82.738,28.996],[-82.736,28.974],[-82.689,28.906],[-82.73,28.85],[-82.698,28.757],[-82.712,28.721],[-82.669,28.696],[-82.675,28.648],[-82.654,28.591],[-82.675,28.442],[-82.706,28.401],[-82.706,28.368],[-82.731,28.325],[-82.746,28.261],[-82.764,28.244],[-82.763,28.219],[-82.805,28.172],[-82.808,28.155],[-82.791,28.152],[-82.781,28.128],[-82.784,28.06],[-82.796,28.054],[-82.819,28.064],[-82.828,28.087],[-82.841,28.084],[-82.823,28.049],[-82.851,27.886],[-82.847,27.854],[-82.746,27.731],[-82.744,27.638],[-82.732,27.613],[-82.7,27.635],[-82.722,27.664],[-82.719,27.692],[-82.64,27.704],[-82.626,27.727],[-82.623,27.78],[-82.587,27.817],[-82.598,27.858],[-82.634,27.904],[-82.72,27.936],[-82.721,27.956],[-82.679,28.0],[-82.69,28.027],[-82.67,28.03],[-82.576,27.969],[-82.554,27.967],[-82.534,27.933],[-82.531,27.904],[-82.543,27.891],[-82.53,27.878],[-82.553,27.863],[-82.554,27.848],[-82.472,27.823],[-82.491,27.915],[-82.462,27.936],[-82.46,27.91],[-82.414,27.901],[-82.393,27.838],[-82.435,27.764],[-82.482,27.743],[-82.478,27.723],[-82.514,27.706],[-82.571,27.609],[-82.612,27.585],[-82.651,27.523],[-82.703,27.498],[-82.708,27.524],[-82.746,27.539],[-82.715,27.5],[-82.692,27.437],[-82.54,27.254],[-82.446,27.061],[-82.289,26.828],[-82.269,26.785],[-82.268,26.721],[-82.253,26.719],[-82.244,26.768],[-82.179,26.773],[-82.147,26.79],[-82.175,26.917],[-82.137,26.926],[-82.108,26.958],[-82.063,26.95],[-82.062,26.931],[-82.09,26.923],[-82.093,26.907],[-82.091,26.889],[-82.059,26.877],[-82.055,26.802],[-82.093,26.666],[-82.139,26.703],[-82.174,26.702],[-82.182,26.682],[-82.138,26.637],[-82.107,26.487],[-82.059,26.493],[-82.06,26.543],[-82.04,26.525],[-82.015,26.529],[-82.009,26.484],[-81.97,26.477],[-81.964,26.458],[-81.912,26.427],[-81.869,26.379],[-81.833,26.295],[-81.802,26.088],[-81.748,25.994],[-81.75,25.96],[-81.728,25.908],[-81.69,25.853],[-81.678,25.845],[-81.654,25.894],[-81.615,25.894],[-81.472,25.817],[-81.468,25.803],[-81.384,25.777],[-81.382,25.749],[-81.355,25.729],[-81.351,25.69],[-81.312,25.703],[-81.29,25.688],[-81.271,25.614],[-81.241,25.599],[-81.226,25.558],[-81.209,25.549],[-81.208,25.505],[-81.169,25.464],[-81.147,25.408],[-81.151,25.387],[-81.128,25.381],[-81.117,25.355],[-81.121,25.339],[-81.14,25.341],[-81.152,25.325],[-81.172,25.222],[-81.147,25.193],[-81.141,25.164],[-81.08,25.119],[-80.901,25.14],[-80.9,25.162],[-80.875,25.174],[-80.822,25.174],[-80.812,25.186],[-80.748,25.147],[-80.744,25.164],[-80.703,25.154],[-80.664,25.187],[-80.542,25.206],[-80.522,25.222],[-80.495,25.2],[-80.465,25.209],[-80.443,25.189],[-80.461,25.162],[-80.469,25.092],[-80.497,25.047],[-80.664,24.91],[-80.656,24.897],[-80.572,24.954],[-80.358,25.153],[-80.327,25.224],[-80.204,25.414],[-80.174,25.489],[-80.176,25.504],[-80.19,25.504],[-80.215,25.43],[-80.25,25.395],[-80.29,25.319],[-80.366,25.285],[-80.374,25.317],[-80.335,25.339],[-80.307,25.384],[-80.326,25.398],[-80.32,25.437],[-80.339,25.499],[-80.302,25.568],[-80.301,25.613],[-80.267,25.652],[-80.24,25.724],[-80.198,25.744],[-80.166,25.729],[-80.177,25.685],[-80.155,25.665],[-80.128,25.772],[-80.11,26.087],[-80.039,26.569],[-80.031,26.796],[-80.094,27.019],[-80.16,27.163],[-80.161,27.193],[-80.254,27.38],[-80.384,27.74],[-80.566,28.096],[-80.604,28.258],[-80.607,28.336],[-80.588,28.411],[-80.525,28.459],[-80.575,28.585],[-80.71,28.757],[-80.966,29.148],[-81.241,29.739],[-81.27,29.883],[-81.309,29.969],[-81.386,30.274],[-81.411,30.482],[-81.447,30.504],[-81.434,30.523],[-81.443,30.601],[-81.433,30.703],[-81.487,30.726],[-81.541,30.713],[-81.618,30.722],[-81.625,30.733],[-81.646,30.728],[-81.662,30.747],[-81.72,30.745],[-81.807,30.79],[-81.869,30.793],[-81.896,30.821],[-81.95,30.827],[-81.974,30.778],[-82.023,30.788],[-82.012,30.763],[-82.039,30.749],[-82.044,30.73],[-82.036,30.707],[-82.05,30.656],[-82.005,30.563],[-82.018,30.531],[-82.018,30.475],[-82.037,30.435],[-82.037,30.378],[-82.06,30.36],[-82.105,30.368],[-82.162,30.358],[-82.193,30.379],[-82.21,30.425],[-82.201,30.485],[-82.236,30.537],[-82.215,30.569],[-84.865,30.712],[-84.896,30.751],[-84.914,30.754],[-84.936,30.821],[-84.936,30.882],[-84.983,30.935],[-84.98,30.961],[-85.006,30.977],[-85.002,31.001],[-87.599,30.997],[-87.592,30.951],[-87.635,30.866]]],[[[-80.743,24.864],[-80.737,24.848],[-80.707,24.864],[-80.689,24.881],[-80.691,24.905],[-80.705,24.906],[-80.714,24.882],[-80.743,24.864]]],[[[-80.851,24.814],[-80.844,24.801],[-80.795,24.812],[-80.782,24.838],[-80.814,24.837],[-80.851,24.814]]],[[[-81.114,24.711],[-81.109,24.689],[-81.08,24.694],[-81.077,24.705],[-80.907,24.768],[-80.905,24.779],[-81.114,24.711]]],[[[-81.812,24.561],[-81.805,24.544],[-81.685,24.559],[-81.517,24.621],[-81.508,24.642],[-81.413,24.647],[-81.395,24.622],[-81.279,24.654],[-81.244,24.675],[-81.292,24.711],[-81.305,24.755],[-81.443,24.813],[-81.746,24.66],[-81.812,24.561]]],[[[-82.007,24.54],[-82.007,24.527],[-81.919,24.528],[-81.883,24.561],[-82.007,24.54]]],[[[-82.164,24.563],[-82.159,24.548],[-82.117,24.549],[-82.101,24.585],[-82.135,24.597],[-82.164,24.563]]],[[[-82.267,26.684],[-82.227,26.62],[-82.226,26.589],[-82.173,26.468],[-82.083,26.422],[-82.017,26.447],[-82.06,26.469],[-82.096,26.457],[-82.175,26.499],[-82.245,26.706],[-82.267,26.684]]],[[[-82.855,28.208],[-82.844,28.164],[-82.835,28.168],[-82.837,28.21],[-82.855,28.208]]],[[[-82.927,24.632],[-82.923,24.622],[-82.862,24.626],[-82.927,24.632]]],[[[-84.671,29.792],[-84.664,29.775],[-84.624,29.786],[-84.584,29.801],[-84.569,29.813],[-84.572,29.828],[-84.671,29.792]]]]},"properties":{"STATE":"12","NAME":"Florida","GEOID":"12"}}]}
